zip,Zipcode name,City,State,County Name
32615,"ALACHUA, FL",ALACHUA,FL,ALACHUA
32616,"ALACHUA, FL",ALACHUA,FL,ALACHUA
32420,"ALFORD, FL",ALFORD,FL,JACKSON
32701,"ALTAMONTE SPRINGS, FL",ALTAMONTE SPRINGS,FL,SEMINOLE
32714,"ALTAMONTE SPRINGS, FL",ALTAMONTE SPRINGS,FL,SEMINOLE
32715,"ALTAMONTE SPRINGS, FL",ALTAMONTE SPRINGS,FL,SEMINOLE
32716,"ALTAMONTE SPRINGS, FL",ALTAMONTE SPRINGS,FL,SEMINOLE
32421,"ALTHA, FL",ALTHA,FL,CALHOUN
32702,"ALTOONA, FL",ALTOONA,FL,LAKE
33820,"ALTURAS, FL",ALTURAS,FL,POLK
33920,"ALVA, FL",ALVA,FL,LEE
34216,"ANNA MARIA, FL",ANNA MARIA,FL,MANATEE
32617,"ANTHONY, FL",ANTHONY,FL,MARION
32320,"APALACHICOLA, FL",APALACHICOLA,FL,FRANKLIN
32329,"APALACHICOLA, FL",APALACHICOLA,FL,FRANKLIN
33572,"APOLLO BEACH, FL",APOLLO BEACH,FL,HILLSBOROUGH
32703,"APOPKA, FL",APOPKA,FL,ORANGE
32704,"APOPKA, FL",APOPKA,FL,ORANGE
32712,"APOPKA, FL",APOPKA,FL,ORANGE
34265,"ARCADIA, FL",ARCADIA,FL,DE SOTO
34266,"ARCADIA, FL",ARCADIA,FL,DE SOTO
34269,"ARCADIA, FL",ARCADIA,FL,DE SOTO
32618,"ARCHER, FL",ARCHER,FL,ALACHUA
32422,"ARGYLE, FL",ARGYLE,FL,WALTON
34679,"ARIPEKA, FL",ARIPEKA,FL,PASCO
34705,"ASTATULA, FL",ASTATULA,FL,LAKE
32102,"ASTOR, FL",ASTOR,FL,LAKE
32233,"ATLANTIC BEACH, FL",ATLANTIC BEACH,FL,DUVAL
33823,"AUBURNDALE, FL",AUBURNDALE,FL,POLK
33825,"AVON PARK, FL",AVON PARK,FL,HIGHLANDS
33826,"AVON PARK, FL",AVON PARK,FL,HIGHLANDS
33827,"BABSON PARK, FL",BABSON PARK,FL,POLK
32530,"BAGDAD, FL",BAGDAD,FL,SANTA ROSA
32531,"BAKER, FL",BAKER,FL,OKALOOSA
33503,"BALM, FL",BALM,FL,HILLSBOROUGH
32105,"BARBERVILLE, FL",BARBERVILLE,FL,VOLUSIA
33830,"BARTOW, FL",BARTOW,FL,POLK
33831,"BARTOW, FL",BARTOW,FL,POLK
32423,"BASCOM, FL",BASCOM,FL,JACKSON
33744,"BAY PINES, FL",BAY PINES,FL,PINELLAS
32619,"BELL, FL",BELL,FL,GILCHRIST
33430,"BELLE GLADE, FL",BELLE GLADE,FL,PALM BEACH
33786,"BELLEAIR BEACH, FL",BELLEAIR BEACH,FL,PINELLAS
34420,"BELLEVIEW, FL",BELLEVIEW,FL,MARION
34421,"BELLEVIEW, FL",BELLEVIEW,FL,MARION
34464,"BEVERLY HILLS, FL",BEVERLY HILLS,FL,CITRUS
34465,"BEVERLY HILLS, FL",BEVERLY HILLS,FL,CITRUS
33043,"BIG PINE KEY, FL",BIG PINE KEY,FL,MONROE
32424,"BLOUNTSTOWN, FL",BLOUNTSTOWN,FL,CALHOUN
33921,"BOCA GRANDE, FL",BOCA GRANDE,FL,LEE
33427,"BOCA RATON, FL",BOCA RATON,FL,PALM BEACH
33428,"BOCA RATON, FL",BOCA RATON,FL,PALM BEACH
33429,"BOCA RATON, FL",BOCA RATON,FL,PALM BEACH
33431,"BOCA RATON, FL",BOCA RATON,FL,PALM BEACH
33432,"BOCA RATON, FL",BOCA RATON,FL,PALM BEACH
33433,"BOCA RATON, FL",BOCA RATON,FL,PALM BEACH
33434,"BOCA RATON, FL",BOCA RATON,FL,PALM BEACH
33464,"BOCA RATON, FL",BOCA RATON,FL,PALM BEACH
33481,"BOCA RATON, FL",BOCA RATON,FL,PALM BEACH
33486,"BOCA RATON, FL",BOCA RATON,FL,PALM BEACH
33487,"BOCA RATON, FL",BOCA RATON,FL,PALM BEACH
33488,"BOCA RATON, FL",BOCA RATON,FL,PALM BEACH
33496,"BOCA RATON, FL",BOCA RATON,FL,PALM BEACH
33497,"BOCA RATON, FL",BOCA RATON,FL,PALM BEACH
33498,"BOCA RATON, FL",BOCA RATON,FL,PALM BEACH
33499,"BOCA RATON, FL",BOCA RATON,FL,PALM BEACH
33922,"BOKEELIA, FL",BOKEELIA,FL,LEE
32425,"BONIFAY, FL",BONIFAY,FL,HOLMES
34133,"BONITA SPRINGS, FL",BONITA SPRINGS,FL,LEE
34134,"BONITA SPRINGS, FL",BONITA SPRINGS,FL,LEE
34135,"BONITA SPRINGS, FL",BONITA SPRINGS,FL,LEE
34136,"BONITA SPRINGS, FL",BONITA SPRINGS,FL,LEE
32007,"BOSTWICK, FL",BOSTWICK,FL,PUTNAM
33834,"BOWLING GREEN, FL",BOWLING GREEN,FL,HARDEE
33424,"BOYNTON BEACH, FL",BOYNTON BEACH,FL,PALM BEACH
33425,"BOYNTON BEACH, FL",BOYNTON BEACH,FL,PALM BEACH
33426,"BOYNTON BEACH, FL",BOYNTON BEACH,FL,PALM BEACH
33435,"BOYNTON BEACH, FL",BOYNTON BEACH,FL,PALM BEACH
33436,"BOYNTON BEACH, FL",BOYNTON BEACH,FL,PALM BEACH
33437,"BOYNTON BEACH, FL",BOYNTON BEACH,FL,PALM BEACH
33472,"BOYNTON BEACH, FL",BOYNTON BEACH,FL,PALM BEACH
33473,"BOYNTON BEACH, FL",BOYNTON BEACH,FL,PALM BEACH
33474,"BOYNTON BEACH, FL",BOYNTON BEACH,FL,PALM BEACH
34201,"BRADENTON, FL",BRADENTON,FL,MANATEE
34202,"BRADENTON, FL",BRADENTON,FL,MANATEE
34203,"BRADENTON, FL",BRADENTON,FL,MANATEE
34204,"BRADENTON, FL",BRADENTON,FL,MANATEE
34205,"BRADENTON, FL",BRADENTON,FL,MANATEE
34206,"BRADENTON, FL",BRADENTON,FL,MANATEE
34207,"BRADENTON, FL",BRADENTON,FL,MANATEE
34208,"BRADENTON, FL",BRADENTON,FL,MANATEE
34209,"BRADENTON, FL",BRADENTON,FL,MANATEE
34210,"BRADENTON, FL",BRADENTON,FL,MANATEE
34211,"BRADENTON, FL",BRADENTON,FL,MANATEE
34212,"BRADENTON, FL",BRADENTON,FL,MANATEE
34280,"BRADENTON, FL",BRADENTON,FL,MANATEE
34282,"BRADENTON, FL",BRADENTON,FL,MANATEE
34217,"BRADENTON BEACH, FL",BRADENTON BEACH,FL,MANATEE
33835,"BRADLEY, FL",BRADLEY,FL,POLK
33508,"BRANDON, FL",BRANDON,FL,HILLSBOROUGH
33509,"BRANDON, FL",BRANDON,FL,HILLSBOROUGH
33510,"BRANDON, FL",BRANDON,FL,HILLSBOROUGH
33511,"BRANDON, FL",BRANDON,FL,HILLSBOROUGH
32008,"BRANFORD, FL",BRANFORD,FL,SUWANNEE
32321,"BRISTOL, FL",BRISTOL,FL,LIBERTY
32621,"BRONSON, FL",BRONSON,FL,LEVY
32622,"BROOKER, FL",BROOKER,FL,BRADFORD
34601,"BROOKSVILLE, FL",BROOKSVILLE,FL,HERNANDO
34602,"BROOKSVILLE, FL",BROOKSVILLE,FL,HERNANDO
34603,"BROOKSVILLE, FL",BROOKSVILLE,FL,HERNANDO
34604,"BROOKSVILLE, FL",BROOKSVILLE,FL,HERNANDO
34605,"BROOKSVILLE, FL",BROOKSVILLE,FL,HERNANDO
34613,"BROOKSVILLE, FL",BROOKSVILLE,FL,HERNANDO
34614,"BROOKSVILLE, FL",BROOKSVILLE,FL,HERNANDO
32009,"BRYCEVILLE, FL",BRYCEVILLE,FL,NASSAU
32110,"BUNNELL, FL",BUNNELL,FL,FLAGLER
33513,"BUSHNELL, FL",BUSHNELL,FL,SUMTER
32011,"CALLAHAN, FL",CALLAHAN,FL,NASSAU
32426,"CAMPBELLTON, FL",CAMPBELLTON,FL,JACKSON
33438,"CANAL POINT, FL",CANAL POINT,FL,PALM BEACH
32111,"CANDLER, FL",CANDLER,FL,MARION
32533,"CANTONMENT, FL",CANTONMENT,FL,ESCAMBIA
32920,"CAPE CANAVERAL, FL",CAPE CANAVERAL,FL,BREVARD
33904,"CAPE CORAL, FL",CAPE CORAL,FL,LEE
33909,"CAPE CORAL, FL",CAPE CORAL,FL,LEE
33910,"CAPE CORAL, FL",CAPE CORAL,FL,LEE
33914,"CAPE CORAL, FL",CAPE CORAL,FL,LEE
33915,"CAPE CORAL, FL",CAPE CORAL,FL,LEE
33990,"CAPE CORAL, FL",CAPE CORAL,FL,LEE
33991,"CAPE CORAL, FL",CAPE CORAL,FL,LEE
33993,"CAPE CORAL, FL",CAPE CORAL,FL,LEE
33924,"CAPTIVA, FL",CAPTIVA,FL,LEE
32322,"CARRABELLE, FL",CARRABELLE,FL,FRANKLIN
32427,"CARYVILLE, FL",CARYVILLE,FL,WASHINGTON
32706,"CASSADAGA, FL",CASSADAGA,FL,VOLUSIA
32707,"CASSELBERRY, FL",CASSELBERRY,FL,SEMINOLE
32718,"CASSELBERRY, FL",CASSELBERRY,FL,SEMINOLE
32730,"CASSELBERRY, FL",CASSELBERRY,FL,SEMINOLE
32625,"CEDAR KEY, FL",CEDAR KEY,FL,LEVY
33514,"CENTER HILL, FL",CENTER HILL,FL,SUMTER
32535,"CENTURY, FL",CENTURY,FL,ESCAMBIA
32324,"CHATTAHOOCHEE, FL",CHATTAHOOCHEE,FL,GADSDEN
32626,"CHIEFLAND, FL",CHIEFLAND,FL,LEVY
32644,"CHIEFLAND, FL",CHIEFLAND,FL,LEVY
32428,"CHIPLEY, FL",CHIPLEY,FL,WASHINGTON
34138,"CHOKOLOSKEE, FL",CHOKOLOSKEE,FL,COLLIER
32709,"CHRISTMAS, FL",CHRISTMAS,FL,ORANGE
32113,"CITRA, FL",CITRA,FL,MARION
32710,"CLARCONA, FL",CLARCONA,FL,ORANGE
32430,"CLARKSVILLE, FL",CLARKSVILLE,FL,CALHOUN
33755,"CLEARWATER, FL",CLEARWATER,FL,PINELLAS
33756,"CLEARWATER, FL",CLEARWATER,FL,PINELLAS
33757,"CLEARWATER, FL",CLEARWATER,FL,PINELLAS
33758,"CLEARWATER, FL",CLEARWATER,FL,PINELLAS
33759,"CLEARWATER, FL",CLEARWATER,FL,PINELLAS
33760,"CLEARWATER, FL",CLEARWATER,FL,PINELLAS
33761,"CLEARWATER, FL",CLEARWATER,FL,PINELLAS
33762,"CLEARWATER, FL",CLEARWATER,FL,PINELLAS
33763,"CLEARWATER, FL",CLEARWATER,FL,PINELLAS
33764,"CLEARWATER, FL",CLEARWATER,FL,PINELLAS
33765,"CLEARWATER, FL",CLEARWATER,FL,PINELLAS
33766,"CLEARWATER, FL",CLEARWATER,FL,PINELLAS
33769,"CLEARWATER, FL",CLEARWATER,FL,PINELLAS
33767,"CLEARWATER BEACH, FL",CLEARWATER BEACH,FL,PINELLAS
34711,"CLERMONT, FL",CLERMONT,FL,LAKE
34712,"CLERMONT, FL",CLERMONT,FL,LAKE
34713,"CLERMONT, FL",CLERMONT,FL,LAKE
34714,"CLERMONT, FL",CLERMONT,FL,LAKE
34715,"CLERMONT, FL",CLERMONT,FL,LAKE
33440,"CLEWISTON, FL",CLEWISTON,FL,HENDRY
32922,"COCOA, FL",COCOA,FL,BREVARD
32923,"COCOA, FL",COCOA,FL,BREVARD
32924,"COCOA, FL",COCOA,FL,BREVARD
32926,"COCOA, FL",COCOA,FL,BREVARD
32927,"COCOA, FL",COCOA,FL,BREVARD
32931,"COCOA BEACH, FL",COCOA BEACH,FL,BREVARD
32932,"COCOA BEACH, FL",COCOA BEACH,FL,BREVARD
33097,"COCONUT CREEK, FL",COCONUT CREEK,FL,BROWARD
33521,"COLEMAN, FL",COLEMAN,FL,SUMTER
34137,"COPELAND, FL",COPELAND,FL,COLLIER
33114,"CORAL GABLES, FL",CORAL GABLES,FL,MIAMI-DADE
33075,"CORAL SPRINGS, FL",CORAL SPRINGS,FL,BROWARD
34215,"CORTEZ, FL",CORTEZ,FL,MANATEE
32431,"COTTONDALE, FL",COTTONDALE,FL,JACKSON
32326,"CRAWFORDVILLE, FL",CRAWFORDVILLE,FL,WAKULLA
32327,"CRAWFORDVILLE, FL",CRAWFORDVILLE,FL,WAKULLA
32112,"CRESCENT CITY, FL",CRESCENT CITY,FL,PUTNAM
32536,"CRESTVIEW, FL",CRESTVIEW,FL,OKALOOSA
32539,"CRESTVIEW, FL",CRESTVIEW,FL,OKALOOSA
32628,"CROSS CITY, FL",CROSS CITY,FL,DIXIE
34681,"CRYSTAL BEACH, FL",CRYSTAL BEACH,FL,PINELLAS
34423,"CRYSTAL RIVER, FL",CRYSTAL RIVER,FL,CITRUS
34428,"CRYSTAL RIVER, FL",CRYSTAL RIVER,FL,CITRUS
34429,"CRYSTAL RIVER, FL",CRYSTAL RIVER,FL,CITRUS
33524,"CRYSTAL SPRINGS, FL",CRYSTAL SPRINGS,FL,PASCO
33523,"DADE CITY, FL",DADE CITY,FL,PASCO
33525,"DADE CITY, FL",DADE CITY,FL,PASCO
33526,"DADE CITY, FL",DADE CITY,FL,PASCO
33004,"DANIA, FL",DANIA,FL,BROWARD
33836,"DAVENPORT, FL",DAVENPORT,FL,POLK
33837,"DAVENPORT, FL",DAVENPORT,FL,POLK
33896,"DAVENPORT, FL",DAVENPORT,FL,POLK
33897,"DAVENPORT, FL",DAVENPORT,FL,POLK
32013,"DAY, FL",DAY,FL,LAFAYETTE
32114,"DAYTONA BEACH, FL",DAYTONA BEACH,FL,VOLUSIA
32115,"DAYTONA BEACH, FL",DAYTONA BEACH,FL,VOLUSIA
32116,"DAYTONA BEACH, FL",DAYTONA BEACH,FL,VOLUSIA
32117,"DAYTONA BEACH, FL",DAYTONA BEACH,FL,VOLUSIA
32118,"DAYTONA BEACH, FL",DAYTONA BEACH,FL,VOLUSIA
32119,"DAYTONA BEACH, FL",DAYTONA BEACH,FL,VOLUSIA
32120,"DAYTONA BEACH, FL",DAYTONA BEACH,FL,VOLUSIA
32121,"DAYTONA BEACH, FL",DAYTONA BEACH,FL,VOLUSIA
32122,"DAYTONA BEACH, FL",DAYTONA BEACH,FL,VOLUSIA
32124,"DAYTONA BEACH, FL",DAYTONA BEACH,FL,VOLUSIA
32125,"DAYTONA BEACH, FL",DAYTONA BEACH,FL,VOLUSIA
32126,"DAYTONA BEACH, FL",DAYTONA BEACH,FL,VOLUSIA
32130,"DE LEON SPRINGS, FL",DE LEON SPRINGS,FL,VOLUSIA
32713,"DEBARY, FL",DEBARY,FL,VOLUSIA
32753,"DEBARY, FL",DEBARY,FL,VOLUSIA
33441,"DEERFIELD BEACH, FL",DEERFIELD BEACH,FL,BROWARD
33442,"DEERFIELD BEACH, FL",DEERFIELD BEACH,FL,BROWARD
33443,"DEERFIELD BEACH, FL",DEERFIELD BEACH,FL,BROWARD
32433,"DEFUNIAK SPRINGS, FL",DEFUNIAK SPRINGS,FL,WALTON
32435,"DEFUNIAK SPRINGS, FL",DEFUNIAK SPRINGS,FL,WALTON
32720,"DELAND, FL",DELAND,FL,VOLUSIA
32721,"DELAND, FL",DELAND,FL,VOLUSIA
32723,"DELAND, FL",DELAND,FL,VOLUSIA
32724,"DELAND, FL",DELAND,FL,VOLUSIA
33444,"DELRAY BEACH, FL",DELRAY BEACH,FL,PALM BEACH
33445,"DELRAY BEACH, FL",DELRAY BEACH,FL,PALM BEACH
33446,"DELRAY BEACH, FL",DELRAY BEACH,FL,PALM BEACH
33448,"DELRAY BEACH, FL",DELRAY BEACH,FL,PALM BEACH
33482,"DELRAY BEACH, FL",DELRAY BEACH,FL,PALM BEACH
33483,"DELRAY BEACH, FL",DELRAY BEACH,FL,PALM BEACH
33484,"DELRAY BEACH, FL",DELRAY BEACH,FL,PALM BEACH
32725,"DELTONA, FL",DELTONA,FL,VOLUSIA
32728,"DELTONA, FL",DELTONA,FL,VOLUSIA
32738,"DELTONA, FL",DELTONA,FL,VOLUSIA
32739,"DELTONA, FL",DELTONA,FL,VOLUSIA
32540,"DESTIN, FL",DESTIN,FL,OKALOOSA
32541,"DESTIN, FL",DESTIN,FL,OKALOOSA
33527,"DOVER, FL",DOVER,FL,HILLSBOROUGH
33838,"DUNDEE, FL",DUNDEE,FL,POLK
34697,"DUNEDIN, FL",DUNEDIN,FL,PINELLAS
34698,"DUNEDIN, FL",DUNEDIN,FL,PINELLAS
34433,"DUNNELLON, FL",DUNNELLON,FL,CITRUS
34434,"DUNNELLON, FL",DUNNELLON,FL,CITRUS
34430,"DUNNELLON, FL",DUNNELLON,FL,MARION
34431,"DUNNELLON, FL",DUNNELLON,FL,MARION
34432,"DUNNELLON, FL",DUNNELLON,FL,MARION
33530,"DURANT, FL",DURANT,FL,HILLSBOROUGH
33839,"EAGLE LAKE, FL",EAGLE LAKE,FL,POLK
32631,"EARLETON, FL",EARLETON,FL,ALACHUA
32131,"EAST PALATKA, FL",EAST PALATKA,FL,PUTNAM
32133,"EASTLAKE WEIR, FL",EASTLAKE WEIR,FL,MARION
32328,"EASTPOINT, FL",EASTPOINT,FL,FRANKLIN
33840,"EATON PARK, FL",EATON PARK,FL,POLK
32437,"EBRO, FL",EBRO,FL,WASHINGTON
32132,"EDGEWATER, FL",EDGEWATER,FL,VOLUSIA
32141,"EDGEWATER, FL",EDGEWATER,FL,VOLUSIA
32542,"EGLIN AFB, FL",EGLIN AFB,FL,OKALOOSA
34680,"ELFERS, FL",ELFERS,FL,PASCO
32033,"ELKTON, FL",ELKTON,FL,SAINT JOHNS
34222,"ELLENTON, FL",ELLENTON,FL,MANATEE
34224,"ENGLEWOOD, FL",ENGLEWOOD,FL,CHARLOTTE
34223,"ENGLEWOOD, FL",ENGLEWOOD,FL,SARASOTA
34295,"ENGLEWOOD, FL",ENGLEWOOD,FL,SARASOTA
33928,"ESTERO, FL",ESTERO,FL,LEE
33929,"ESTERO, FL",ESTERO,FL,LEE
32726,"EUSTIS, FL",EUSTIS,FL,LAKE
32727,"EUSTIS, FL",EUSTIS,FL,LAKE
32736,"EUSTIS, FL",EUSTIS,FL,LAKE
34139,"EVERGLADES CITY, FL",EVERGLADES CITY,FL,COLLIER
32633,"EVINSTON, FL",EVINSTON,FL,ALACHUA
32634,"FAIRFIELD, FL",FAIRFIELD,FL,MARION
33930,"FELDA, FL",FELDA,FL,HENDRY
32948,"FELLSMERE, FL",FELLSMERE,FL,INDIAN RIVER
32034,"FERNANDINA BEACH, FL",FERNANDINA BEACH,FL,NASSAU
32035,"FERNANDINA BEACH, FL",FERNANDINA BEACH,FL,NASSAU
34729,"FERNDALE, FL",FERNDALE,FL,LAKE
32136,"FLAGLER BEACH, FL",FLAGLER BEACH,FL,FLAGLER
32003,"FLEMING ISLAND, FL",FLEMING ISLAND,FL,CLAY
32006,"FLEMING ISLAND, FL",FLEMING ISLAND,FL,CLAY
32140,"FLORAHOME, FL",FLORAHOME,FL,PUTNAM
34436,"FLORAL CITY, FL",FLORAL CITY,FL,CITRUS
33301,"FORT LAUDERDALE, FL",FORT LAUDERDALE,FL,BROWARD
33302,"FORT LAUDERDALE, FL",FORT LAUDERDALE,FL,BROWARD
33303,"FORT LAUDERDALE, FL",FORT LAUDERDALE,FL,BROWARD
33304,"FORT LAUDERDALE, FL",FORT LAUDERDALE,FL,BROWARD
33305,"FORT LAUDERDALE, FL",FORT LAUDERDALE,FL,BROWARD
33306,"FORT LAUDERDALE, FL",FORT LAUDERDALE,FL,BROWARD
33307,"FORT LAUDERDALE, FL",FORT LAUDERDALE,FL,BROWARD
33308,"FORT LAUDERDALE, FL",FORT LAUDERDALE,FL,BROWARD
33309,"FORT LAUDERDALE, FL",FORT LAUDERDALE,FL,BROWARD
33310,"FORT LAUDERDALE, FL",FORT LAUDERDALE,FL,BROWARD
33311,"FORT LAUDERDALE, FL",FORT LAUDERDALE,FL,BROWARD
33312,"FORT LAUDERDALE, FL",FORT LAUDERDALE,FL,BROWARD
33313,"FORT LAUDERDALE, FL",FORT LAUDERDALE,FL,BROWARD
33314,"FORT LAUDERDALE, FL",FORT LAUDERDALE,FL,BROWARD
33315,"FORT LAUDERDALE, FL",FORT LAUDERDALE,FL,BROWARD
33316,"FORT LAUDERDALE, FL",FORT LAUDERDALE,FL,BROWARD
33317,"FORT LAUDERDALE, FL",FORT LAUDERDALE,FL,BROWARD
33318,"FORT LAUDERDALE, FL",FORT LAUDERDALE,FL,BROWARD
33319,"FORT LAUDERDALE, FL",FORT LAUDERDALE,FL,BROWARD
33320,"FORT LAUDERDALE, FL",FORT LAUDERDALE,FL,BROWARD
33321,"FORT LAUDERDALE, FL",FORT LAUDERDALE,FL,BROWARD
33322,"FORT LAUDERDALE, FL",FORT LAUDERDALE,FL,BROWARD
33323,"FORT LAUDERDALE, FL",FORT LAUDERDALE,FL,BROWARD
33324,"FORT LAUDERDALE, FL",FORT LAUDERDALE,FL,BROWARD
33325,"FORT LAUDERDALE, FL",FORT LAUDERDALE,FL,BROWARD
33326,"FORT LAUDERDALE, FL",FORT LAUDERDALE,FL,BROWARD
33327,"FORT LAUDERDALE, FL",FORT LAUDERDALE,FL,BROWARD
33328,"FORT LAUDERDALE, FL",FORT LAUDERDALE,FL,BROWARD
33329,"FORT LAUDERDALE, FL",FORT LAUDERDALE,FL,BROWARD
33330,"FORT LAUDERDALE, FL",FORT LAUDERDALE,FL,BROWARD
33331,"FORT LAUDERDALE, FL",FORT LAUDERDALE,FL,BROWARD
33332,"FORT LAUDERDALE, FL",FORT LAUDERDALE,FL,BROWARD
33334,"FORT LAUDERDALE, FL",FORT LAUDERDALE,FL,BROWARD
33335,"FORT LAUDERDALE, FL",FORT LAUDERDALE,FL,BROWARD
33336,"FORT LAUDERDALE, FL",FORT LAUDERDALE,FL,BROWARD
33337,"FORT LAUDERDALE, FL",FORT LAUDERDALE,FL,BROWARD
33338,"FORT LAUDERDALE, FL",FORT LAUDERDALE,FL,BROWARD
33339,"FORT LAUDERDALE, FL",FORT LAUDERDALE,FL,BROWARD
33345,"FORT LAUDERDALE, FL",FORT LAUDERDALE,FL,BROWARD
33346,"FORT LAUDERDALE, FL",FORT LAUDERDALE,FL,BROWARD
33348,"FORT LAUDERDALE, FL",FORT LAUDERDALE,FL,BROWARD
33351,"FORT LAUDERDALE, FL",FORT LAUDERDALE,FL,BROWARD
33355,"FORT LAUDERDALE, FL",FORT LAUDERDALE,FL,BROWARD
33359,"FORT LAUDERDALE, FL",FORT LAUDERDALE,FL,BROWARD
33394,"FORT LAUDERDALE, FL",FORT LAUDERDALE,FL,BROWARD
32134,"FORT MC COY, FL",FORT MC COY,FL,MARION
33841,"FORT MEADE, FL",FORT MEADE,FL,POLK
33901,"FORT MYERS, FL",FORT MYERS,FL,LEE
33902,"FORT MYERS, FL",FORT MYERS,FL,LEE
33905,"FORT MYERS, FL",FORT MYERS,FL,LEE
33906,"FORT MYERS, FL",FORT MYERS,FL,LEE
33907,"FORT MYERS, FL",FORT MYERS,FL,LEE
33908,"FORT MYERS, FL",FORT MYERS,FL,LEE
33911,"FORT MYERS, FL",FORT MYERS,FL,LEE
33912,"FORT MYERS, FL",FORT MYERS,FL,LEE
33913,"FORT MYERS, FL",FORT MYERS,FL,LEE
33916,"FORT MYERS, FL",FORT MYERS,FL,LEE
33919,"FORT MYERS, FL",FORT MYERS,FL,LEE
33965,"FORT MYERS, FL",FORT MYERS,FL,LEE
33966,"FORT MYERS, FL",FORT MYERS,FL,LEE
33967,"FORT MYERS, FL",FORT MYERS,FL,LEE
33994,"FORT MYERS, FL",FORT MYERS,FL,LEE
33931,"FORT MYERS BEACH, FL",FORT MYERS BEACH,FL,LEE
33932,"FORT MYERS BEACH, FL",FORT MYERS BEACH,FL,LEE
34267,"FORT OGDEN, FL",FORT OGDEN,FL,DE SOTO
34945,"FORT PIERCE, FL",FORT PIERCE,FL,SAINT LUCIE
34946,"FORT PIERCE, FL",FORT PIERCE,FL,SAINT LUCIE
34947,"FORT PIERCE, FL",FORT PIERCE,FL,SAINT LUCIE
34948,"FORT PIERCE, FL",FORT PIERCE,FL,SAINT LUCIE
34949,"FORT PIERCE, FL",FORT PIERCE,FL,SAINT LUCIE
34950,"FORT PIERCE, FL",FORT PIERCE,FL,SAINT LUCIE
34951,"FORT PIERCE, FL",FORT PIERCE,FL,SAINT LUCIE
34954,"FORT PIERCE, FL",FORT PIERCE,FL,SAINT LUCIE
34979,"FORT PIERCE, FL",FORT PIERCE,FL,SAINT LUCIE
34981,"FORT PIERCE, FL",FORT PIERCE,FL,SAINT LUCIE
34982,"FORT PIERCE, FL",FORT PIERCE,FL,SAINT LUCIE
32547,"FORT WALTON BEACH, FL",FORT WALTON BEACH,FL,OKALOOSA
32548,"FORT WALTON BEACH, FL",FORT WALTON BEACH,FL,OKALOOSA
32549,"FORT WALTON BEACH, FL",FORT WALTON BEACH,FL,OKALOOSA
32038,"FORT WHITE, FL",FORT WHITE,FL,COLUMBIA
32438,"FOUNTAIN, FL",FOUNTAIN,FL,BAY
32439,"FREEPORT, FL",FREEPORT,FL,WALTON
33843,"FROSTPROOF, FL",FROSTPROOF,FL,POLK
34731,"FRUITLAND PARK, FL",FRUITLAND PARK,FL,LAKE
32601,"GAINESVILLE, FL",GAINESVILLE,FL,ALACHUA
32602,"GAINESVILLE, FL",GAINESVILLE,FL,ALACHUA
32603,"GAINESVILLE, FL",GAINESVILLE,FL,ALACHUA
32604,"GAINESVILLE, FL",GAINESVILLE,FL,ALACHUA
32605,"GAINESVILLE, FL",GAINESVILLE,FL,ALACHUA
32606,"GAINESVILLE, FL",GAINESVILLE,FL,ALACHUA
32607,"GAINESVILLE, FL",GAINESVILLE,FL,ALACHUA
32608,"GAINESVILLE, FL",GAINESVILLE,FL,ALACHUA
32609,"GAINESVILLE, FL",GAINESVILLE,FL,ALACHUA
32610,"GAINESVILLE, FL",GAINESVILLE,FL,ALACHUA
32611,"GAINESVILLE, FL",GAINESVILLE,FL,ALACHUA
32614,"GAINESVILLE, FL",GAINESVILLE,FL,ALACHUA
32627,"GAINESVILLE, FL",GAINESVILLE,FL,ALACHUA
32635,"GAINESVILLE, FL",GAINESVILLE,FL,ALACHUA
32641,"GAINESVILLE, FL",GAINESVILLE,FL,ALACHUA
32653,"GAINESVILLE, FL",GAINESVILLE,FL,ALACHUA
32732,"GENEVA, FL",GENEVA,FL,SEMINOLE
32139,"GEORGETOWN, FL",GEORGETOWN,FL,PUTNAM
33534,"GIBSONTON, FL",GIBSONTON,FL,HILLSBOROUGH
32040,"GLEN SAINT MARY, FL",GLEN SAINT MARY,FL,BAKER
32722,"GLENWOOD, FL",GLENWOOD,FL,VOLUSIA
32733,"GOLDENROD, FL",GOLDENROD,FL,SEMINOLE
32560,"GONZALEZ, FL",GONZALEZ,FL,ESCAMBIA
34140,"GOODLAND, FL",GOODLAND,FL,COLLIER
34734,"GOTHA, FL",GOTHA,FL,ORANGE
32440,"GRACEVILLE, FL",GRACEVILLE,FL,JACKSON
32042,"GRAHAM, FL",GRAHAM,FL,BRADFORD
32735,"GRAND ISLAND, FL",GRAND ISLAND,FL,LAKE
32442,"GRAND RIDGE, FL",GRAND RIDGE,FL,JACKSON
32138,"GRANDIN, FL",GRANDIN,FL,PUTNAM
32949,"GRANT, FL",GRANT,FL,BREVARD
32043,"GREEN COVE SPRINGS, FL",GREEN COVE SPRINGS,FL,CLAY
33454,"GREENACRES, FL",GREENACRES,FL,PALM BEACH
32330,"GREENSBORO, FL",GREENSBORO,FL,GADSDEN
32331,"GREENVILLE, FL",GREENVILLE,FL,MADISON
32443,"GREENWOOD, FL",GREENWOOD,FL,JACKSON
32332,"GRETNA, FL",GRETNA,FL,GADSDEN
34736,"GROVELAND, FL",GROVELAND,FL,LAKE
32561,"GULF BREEZE, FL",GULF BREEZE,FL,SANTA ROSA
32562,"GULF BREEZE, FL",GULF BREEZE,FL,SANTA ROSA
32563,"GULF BREEZE, FL",GULF BREEZE,FL,SANTA ROSA
32639,"GULF HAMMOCK, FL",GULF HAMMOCK,FL,LEVY
33844,"HAINES CITY, FL",HAINES CITY,FL,POLK
33845,"HAINES CITY, FL",HAINES CITY,FL,POLK
33008,"HALLANDALE, FL",HALLANDALE,FL,BROWARD
33009,"HALLANDALE, FL",HALLANDALE,FL,BROWARD
32044,"HAMPTON, FL",HAMPTON,FL,BRADFORD
32145,"HASTINGS, FL",HASTINGS,FL,SAINT JOHNS
32333,"HAVANA, FL",HAVANA,FL,GADSDEN
32640,"HAWTHORNE, FL",HAWTHORNE,FL,ALACHUA
34441,"HERNANDO, FL",HERNANDO,FL,CITRUS
34442,"HERNANDO, FL",HERNANDO,FL,CITRUS
33002,"HIALEAH, FL",HIALEAH,FL,MIAMI-DADE
33010,"HIALEAH, FL",HIALEAH,FL,MIAMI-DADE
33011,"HIALEAH, FL",HIALEAH,FL,MIAMI-DADE
33012,"HIALEAH, FL",HIALEAH,FL,MIAMI-DADE
33013,"HIALEAH, FL",HIALEAH,FL,MIAMI-DADE
33014,"HIALEAH, FL",HIALEAH,FL,MIAMI-DADE
33015,"HIALEAH, FL",HIALEAH,FL,MIAMI-DADE
33016,"HIALEAH, FL",HIALEAH,FL,MIAMI-DADE
33017,"HIALEAH, FL",HIALEAH,FL,MIAMI-DADE
33018,"HIALEAH, FL",HIALEAH,FL,MIAMI-DADE
32643,"HIGH SPRINGS, FL",HIGH SPRINGS,FL,ALACHUA
32655,"HIGH SPRINGS, FL",HIGH SPRINGS,FL,ALACHUA
33846,"HIGHLAND CITY, FL",HIGHLAND CITY,FL,POLK
32046,"HILLIARD, FL",HILLIARD,FL,NASSAU
33455,"HOBE SOUND, FL",HOBE SOUND,FL,MARTIN
33475,"HOBE SOUND, FL",HOBE SOUND,FL,MARTIN
34445,"HOLDER, FL",HOLDER,FL,CITRUS
34690,"HOLIDAY, FL",HOLIDAY,FL,PASCO
34691,"HOLIDAY, FL",HOLIDAY,FL,PASCO
32147,"HOLLISTER, FL",HOLLISTER,FL,PUTNAM
33019,"HOLLYWOOD, FL",HOLLYWOOD,FL,BROWARD
33020,"HOLLYWOOD, FL",HOLLYWOOD,FL,BROWARD
33021,"HOLLYWOOD, FL",HOLLYWOOD,FL,BROWARD
33022,"HOLLYWOOD, FL",HOLLYWOOD,FL,BROWARD
33023,"HOLLYWOOD, FL",HOLLYWOOD,FL,BROWARD
33024,"HOLLYWOOD, FL",HOLLYWOOD,FL,BROWARD
33025,"HOLLYWOOD, FL",HOLLYWOOD,FL,BROWARD
33026,"HOLLYWOOD, FL",HOLLYWOOD,FL,BROWARD
33027,"HOLLYWOOD, FL",HOLLYWOOD,FL,BROWARD
33029,"HOLLYWOOD, FL",HOLLYWOOD,FL,BROWARD
33081,"HOLLYWOOD, FL",HOLLYWOOD,FL,BROWARD
33083,"HOLLYWOOD, FL",HOLLYWOOD,FL,BROWARD
33084,"HOLLYWOOD, FL",HOLLYWOOD,FL,BROWARD
34218,"HOLMES BEACH, FL",HOLMES BEACH,FL,MANATEE
32564,"HOLT, FL",HOLT,FL,OKALOOSA
33847,"HOMELAND, FL",HOMELAND,FL,POLK
33030,"HOMESTEAD, FL",HOMESTEAD,FL,MIAMI-DADE
33031,"HOMESTEAD, FL",HOMESTEAD,FL,MIAMI-DADE
33032,"HOMESTEAD, FL",HOMESTEAD,FL,MIAMI-DADE
33033,"HOMESTEAD, FL",HOMESTEAD,FL,MIAMI-DADE
33034,"HOMESTEAD, FL",HOMESTEAD,FL,MIAMI-DADE
33035,"HOMESTEAD, FL",HOMESTEAD,FL,MIAMI-DADE
33039,"HOMESTEAD, FL",HOMESTEAD,FL,MIAMI-DADE
33090,"HOMESTEAD, FL",HOMESTEAD,FL,MIAMI-DADE
33092,"HOMESTEAD, FL",HOMESTEAD,FL,MIAMI-DADE
34446,"HOMOSASSA, FL",HOMOSASSA,FL,CITRUS
34448,"HOMOSASSA, FL",HOMOSASSA,FL,CITRUS
34487,"HOMOSASSA, FL",HOMOSASSA,FL,CITRUS
34447,"HOMOSASSA SPRINGS, FL",HOMOSASSA SPRINGS,FL,CITRUS
32648,"HORSESHOE BEACH, FL",HORSESHOE BEACH,FL,DIXIE
32334,"HOSFORD, FL",HOSFORD,FL,LIBERTY
34737,"HOWEY IN THE HILLS, FL",HOWEY IN THE HILLS,FL,LAKE
34667,"HUDSON, FL",HUDSON,FL,PASCO
34669,"HUDSON, FL",HUDSON,FL,PASCO
34674,"HUDSON, FL",HUDSON,FL,PASCO
32544,"HURLBURT FIELD, FL",HURLBURT FIELD,FL,OKALOOSA
34142,"IMMOKALEE, FL",IMMOKALEE,FL,COLLIER
34143,"IMMOKALEE, FL",IMMOKALEE,FL,COLLIER
32903,"INDIALANTIC, FL",INDIALANTIC,FL,BREVARD
33855,"INDIAN LAKE ESTATES, FL",INDIAN LAKE ESTATES,FL,POLK
33785,"INDIAN ROCKS BEACH, FL",INDIAN ROCKS BEACH,FL,PINELLAS
34956,"INDIANTOWN, FL",INDIANTOWN,FL,MARTIN
34449,"INGLIS, FL",INGLIS,FL,LEVY
33848,"INTERCESSION CITY, FL",INTERCESSION CITY,FL,OSCEOLA
32148,"INTERLACHEN, FL",INTERLACHEN,FL,PUTNAM
34450,"INVERNESS, FL",INVERNESS,FL,CITRUS
34451,"INVERNESS, FL",INVERNESS,FL,CITRUS
34452,"INVERNESS, FL",INVERNESS,FL,CITRUS
34453,"INVERNESS, FL",INVERNESS,FL,CITRUS
33036,"ISLAMORADA, FL",ISLAMORADA,FL,MONROE
32654,"ISLAND GROVE, FL",ISLAND GROVE,FL,ALACHUA
34636,"ISTACHATTA, FL",ISTACHATTA,FL,HERNANDO
32099,"JACKSONVILLE, FL",JACKSONVILLE,FL,DUVAL
32201,"JACKSONVILLE, FL",JACKSONVILLE,FL,DUVAL
32202,"JACKSONVILLE, FL",JACKSONVILLE,FL,DUVAL
32203,"JACKSONVILLE, FL",JACKSONVILLE,FL,DUVAL
32204,"JACKSONVILLE, FL",JACKSONVILLE,FL,DUVAL
32205,"JACKSONVILLE, FL",JACKSONVILLE,FL,DUVAL
32206,"JACKSONVILLE, FL",JACKSONVILLE,FL,DUVAL
32207,"JACKSONVILLE, FL",JACKSONVILLE,FL,DUVAL
32208,"JACKSONVILLE, FL",JACKSONVILLE,FL,DUVAL
32209,"JACKSONVILLE, FL",JACKSONVILLE,FL,DUVAL
32210,"JACKSONVILLE, FL",JACKSONVILLE,FL,DUVAL
32211,"JACKSONVILLE, FL",JACKSONVILLE,FL,DUVAL
32212,"JACKSONVILLE, FL",JACKSONVILLE,FL,DUVAL
32214,"JACKSONVILLE, FL",JACKSONVILLE,FL,DUVAL
32216,"JACKSONVILLE, FL",JACKSONVILLE,FL,DUVAL
32217,"JACKSONVILLE, FL",JACKSONVILLE,FL,DUVAL
32218,"JACKSONVILLE, FL",JACKSONVILLE,FL,DUVAL
32219,"JACKSONVILLE, FL",JACKSONVILLE,FL,DUVAL
32220,"JACKSONVILLE, FL",JACKSONVILLE,FL,DUVAL
32221,"JACKSONVILLE, FL",JACKSONVILLE,FL,DUVAL
32222,"JACKSONVILLE, FL",JACKSONVILLE,FL,DUVAL
32223,"JACKSONVILLE, FL",JACKSONVILLE,FL,DUVAL
32224,"JACKSONVILLE, FL",JACKSONVILLE,FL,DUVAL
32225,"JACKSONVILLE, FL",JACKSONVILLE,FL,DUVAL
32226,"JACKSONVILLE, FL",JACKSONVILLE,FL,DUVAL
32227,"JACKSONVILLE, FL",JACKSONVILLE,FL,DUVAL
32228,"JACKSONVILLE, FL",JACKSONVILLE,FL,DUVAL
32229,"JACKSONVILLE, FL",JACKSONVILLE,FL,DUVAL
32231,"JACKSONVILLE, FL",JACKSONVILLE,FL,DUVAL
32234,"JACKSONVILLE, FL",JACKSONVILLE,FL,DUVAL
32235,"JACKSONVILLE, FL",JACKSONVILLE,FL,DUVAL
32236,"JACKSONVILLE, FL",JACKSONVILLE,FL,DUVAL
32237,"JACKSONVILLE, FL",JACKSONVILLE,FL,DUVAL
32238,"JACKSONVILLE, FL",JACKSONVILLE,FL,DUVAL
32239,"JACKSONVILLE, FL",JACKSONVILLE,FL,DUVAL
32241,"JACKSONVILLE, FL",JACKSONVILLE,FL,DUVAL
32244,"JACKSONVILLE, FL",JACKSONVILLE,FL,DUVAL
32245,"JACKSONVILLE, FL",JACKSONVILLE,FL,DUVAL
32246,"JACKSONVILLE, FL",JACKSONVILLE,FL,DUVAL
32247,"JACKSONVILLE, FL",JACKSONVILLE,FL,DUVAL
32254,"JACKSONVILLE, FL",JACKSONVILLE,FL,DUVAL
32255,"JACKSONVILLE, FL",JACKSONVILLE,FL,DUVAL
32256,"JACKSONVILLE, FL",JACKSONVILLE,FL,DUVAL
32257,"JACKSONVILLE, FL",JACKSONVILLE,FL,DUVAL
32258,"JACKSONVILLE, FL",JACKSONVILLE,FL,DUVAL
32277,"JACKSONVILLE, FL",JACKSONVILLE,FL,DUVAL
32260,"JACKSONVILLE, FL",JACKSONVILLE,FL,SAINT JOHNS
32240,"JACKSONVILLE BEACH, FL",JACKSONVILLE BEACH,FL,DUVAL
32250,"JACKSONVILLE BEACH, FL",JACKSONVILLE BEACH,FL,DUVAL
32052,"JASPER, FL",JASPER,FL,HAMILTON
32565,"JAY, FL",JAY,FL,SANTA ROSA
32053,"JENNINGS, FL",JENNINGS,FL,HAMILTON
34957,"JENSEN BEACH, FL",JENSEN BEACH,FL,MARTIN
34958,"JENSEN BEACH, FL",JENSEN BEACH,FL,MARTIN
33458,"JUPITER, FL",JUPITER,FL,PALM BEACH
33468,"JUPITER, FL",JUPITER,FL,PALM BEACH
33469,"JUPITER, FL",JUPITER,FL,PALM BEACH
33477,"JUPITER, FL",JUPITER,FL,PALM BEACH
33478,"JUPITER, FL",JUPITER,FL,PALM BEACH
33849,"KATHLEEN, FL",KATHLEEN,FL,POLK
34739,"KENANSVILLE, FL",KENANSVILLE,FL,OSCEOLA
33149,"KEY BISCAYNE, FL",KEY BISCAYNE,FL,MIAMI-DADE
33051,"KEY COLONY BEACH, FL",KEY COLONY BEACH,FL,MONROE
33037,"KEY LARGO, FL",KEY LARGO,FL,MONROE
33040,"KEY WEST, FL",KEY WEST,FL,MONROE
33041,"KEY WEST, FL",KEY WEST,FL,MONROE
33045,"KEY WEST, FL",KEY WEST,FL,MONROE
32656,"KEYSTONE HEIGHTS, FL",KEYSTONE HEIGHTS,FL,CLAY
34740,"KILLARNEY, FL",KILLARNEY,FL,ORANGE
34741,"KISSIMMEE, FL",KISSIMMEE,FL,OSCEOLA
34742,"KISSIMMEE, FL",KISSIMMEE,FL,OSCEOLA
34743,"KISSIMMEE, FL",KISSIMMEE,FL,OSCEOLA
34744,"KISSIMMEE, FL",KISSIMMEE,FL,OSCEOLA
34745,"KISSIMMEE, FL",KISSIMMEE,FL,OSCEOLA
34746,"KISSIMMEE, FL",KISSIMMEE,FL,OSCEOLA
34747,"KISSIMMEE, FL",KISSIMMEE,FL,OSCEOLA
34758,"KISSIMMEE, FL",KISSIMMEE,FL,OSCEOLA
34759,"KISSIMMEE, FL",KISSIMMEE,FL,POLK
32658,"LA CROSSE, FL",LA CROSSE,FL,ALACHUA
33935,"LABELLE, FL",LABELLE,FL,HENDRY
33975,"LABELLE, FL",LABELLE,FL,HENDRY
33537,"LACOOCHEE, FL",LACOOCHEE,FL,PASCO
32158,"LADY LAKE, FL",LADY LAKE,FL,LAKE
32159,"LADY LAKE, FL",LADY LAKE,FL,LAKE
33850,"LAKE ALFRED, FL",LAKE ALFRED,FL,POLK
32054,"LAKE BUTLER, FL",LAKE BUTLER,FL,UNION
32024,"LAKE CITY, FL",LAKE CITY,FL,COLUMBIA
32025,"LAKE CITY, FL",LAKE CITY,FL,COLUMBIA
32055,"LAKE CITY, FL",LAKE CITY,FL,COLUMBIA
32056,"LAKE CITY, FL",LAKE CITY,FL,COLUMBIA
32157,"LAKE COMO, FL",LAKE COMO,FL,PUTNAM
32160,"LAKE GENEVA, FL",LAKE GENEVA,FL,CLAY
33851,"LAKE HAMILTON, FL",LAKE HAMILTON,FL,POLK
33459,"LAKE HARBOR, FL",LAKE HARBOR,FL,PALM BEACH
32744,"LAKE HELEN, FL",LAKE HELEN,FL,VOLUSIA
32746,"LAKE MARY, FL",LAKE MARY,FL,SEMINOLE
32795,"LAKE MARY, FL",LAKE MARY,FL,SEMINOLE
32747,"LAKE MONROE, FL",LAKE MONROE,FL,SEMINOLE
33538,"LAKE PANASOFFKEE, FL",LAKE PANASOFFKEE,FL,SUMTER
33852,"LAKE PLACID, FL",LAKE PLACID,FL,HIGHLANDS
33862,"LAKE PLACID, FL",LAKE PLACID,FL,HIGHLANDS
33853,"LAKE WALES, FL",LAKE WALES,FL,POLK
33859,"LAKE WALES, FL",LAKE WALES,FL,POLK
33898,"LAKE WALES, FL",LAKE WALES,FL,POLK
33449,"LAKE WORTH, FL",LAKE WORTH,FL,PALM BEACH
33460,"LAKE WORTH, FL",LAKE WORTH,FL,PALM BEACH
33461,"LAKE WORTH, FL",LAKE WORTH,FL,PALM BEACH
33462,"LAKE WORTH, FL",LAKE WORTH,FL,PALM BEACH
33463,"LAKE WORTH, FL",LAKE WORTH,FL,PALM BEACH
33465,"LAKE WORTH, FL",LAKE WORTH,FL,PALM BEACH
33466,"LAKE WORTH, FL",LAKE WORTH,FL,PALM BEACH
33467,"LAKE WORTH, FL",LAKE WORTH,FL,PALM BEACH
33801,"LAKELAND, FL",LAKELAND,FL,POLK
33802,"LAKELAND, FL",LAKELAND,FL,POLK
33803,"LAKELAND, FL",LAKELAND,FL,POLK
33804,"LAKELAND, FL",LAKELAND,FL,POLK
33805,"LAKELAND, FL",LAKELAND,FL,POLK
33806,"LAKELAND, FL",LAKELAND,FL,POLK
33807,"LAKELAND, FL",LAKELAND,FL,POLK
33809,"LAKELAND, FL",LAKELAND,FL,POLK
33810,"LAKELAND, FL",LAKELAND,FL,POLK
33811,"LAKELAND, FL",LAKELAND,FL,POLK
33812,"LAKELAND, FL",LAKELAND,FL,POLK
33813,"LAKELAND, FL",LAKELAND,FL,POLK
33815,"LAKELAND, FL",LAKELAND,FL,POLK
33854,"LAKESHORE, FL",LAKESHORE,FL,POLK
32336,"LAMONT, FL",LAMONT,FL,JEFFERSON
32323,"LANARK VILLAGE, FL",LANARK VILLAGE,FL,FRANKLIN
34637,"LAND O LAKES, FL",LAND O LAKES,FL,PASCO
34638,"LAND O LAKES, FL",LAND O LAKES,FL,PASCO
34639,"LAND O LAKES, FL",LAND O LAKES,FL,PASCO
33770,"LARGO, FL",LARGO,FL,PINELLAS
33771,"LARGO, FL",LARGO,FL,PINELLAS
33773,"LARGO, FL",LARGO,FL,PINELLAS
33774,"LARGO, FL",LARGO,FL,PINELLAS
33778,"LARGO, FL",LARGO,FL,PINELLAS
33779,"LARGO, FL",LARGO,FL,PINELLAS
34272,"LAUREL, FL",LAUREL,FL,SARASOTA
32567,"LAUREL HILL, FL",LAUREL HILL,FL,OKALOOSA
32058,"LAWTEY, FL",LAWTEY,FL,BRADFORD
34460,"LECANTO, FL",LECANTO,FL,CITRUS
34461,"LECANTO, FL",LECANTO,FL,CITRUS
32059,"LEE, FL",LEE,FL,MADISON
34748,"LEESBURG, FL",LEESBURG,FL,LAKE
34749,"LEESBURG, FL",LEESBURG,FL,LAKE
34788,"LEESBURG, FL",LEESBURG,FL,LAKE
34789,"LEESBURG, FL",LEESBURG,FL,LAKE
33936,"LEHIGH ACRES, FL",LEHIGH ACRES,FL,LEE
33970,"LEHIGH ACRES, FL",LEHIGH ACRES,FL,LEE
33971,"LEHIGH ACRES, FL",LEHIGH ACRES,FL,LEE
33972,"LEHIGH ACRES, FL",LEHIGH ACRES,FL,LEE
33973,"LEHIGH ACRES, FL",LEHIGH ACRES,FL,LEE
33974,"LEHIGH ACRES, FL",LEHIGH ACRES,FL,LEE
33976,"LEHIGH ACRES, FL",LEHIGH ACRES,FL,LEE
33547,"LITHIA, FL",LITHIA,FL,HILLSBOROUGH
32060,"LIVE OAK, FL",LIVE OAK,FL,SUWANNEE
32064,"LIVE OAK, FL",LIVE OAK,FL,SUWANNEE
32337,"LLOYD, FL",LLOYD,FL,JEFFERSON
33001,"LONG KEY, FL",LONG KEY,FL,MONROE
34228,"LONGBOAT KEY, FL",LONGBOAT KEY,FL,MANATEE
32750,"LONGWOOD, FL",LONGWOOD,FL,SEMINOLE
32752,"LONGWOOD, FL",LONGWOOD,FL,SEMINOLE
32779,"LONGWOOD, FL",LONGWOOD,FL,SEMINOLE
32791,"LONGWOOD, FL",LONGWOOD,FL,SEMINOLE
33857,"LORIDA, FL",LORIDA,FL,HIGHLANDS
33858,"LOUGHMAN, FL",LOUGHMAN,FL,POLK
32663,"LOWELL, FL",LOWELL,FL,MARION
33470,"LOXAHATCHEE, FL",LOXAHATCHEE,FL,PALM BEACH
32061,"LULU, FL",LULU,FL,COLUMBIA
33548,"LUTZ, FL",LUTZ,FL,HILLSBOROUGH
33549,"LUTZ, FL",LUTZ,FL,HILLSBOROUGH
33558,"LUTZ, FL",LUTZ,FL,HILLSBOROUGH
33559,"LUTZ, FL",LUTZ,FL,HILLSBOROUGH
32444,"LYNN HAVEN, FL",LYNN HAVEN,FL,BAY
32063,"MACCLENNY, FL",MACCLENNY,FL,BAKER
32340,"MADISON, FL",MADISON,FL,MADISON
32341,"MADISON, FL",MADISON,FL,MADISON
32751,"MAITLAND, FL",MAITLAND,FL,ORANGE
32794,"MAITLAND, FL",MAITLAND,FL,ORANGE
32950,"MALABAR, FL",MALABAR,FL,BREVARD
32445,"MALONE, FL",MALONE,FL,JACKSON
33550,"MANGO, FL",MANGO,FL,HILLSBOROUGH
33050,"MARATHON, FL",MARATHON,FL,MONROE
33052,"MARATHON SHORES, FL",MARATHON SHORES,FL,MONROE
34145,"MARCO ISLAND, FL",MARCO ISLAND,FL,COLLIER
34146,"MARCO ISLAND, FL",MARCO ISLAND,FL,COLLIER
33093,"MARGATE, FL",MARGATE,FL,BROWARD
32446,"MARIANNA, FL",MARIANNA,FL,JACKSON
32447,"MARIANNA, FL",MARIANNA,FL,JACKSON
32448,"MARIANNA, FL",MARIANNA,FL,JACKSON
32569,"MARY ESTHER, FL",MARY ESTHER,FL,OKALOOSA
34753,"MASCOTTE, FL",MASCOTTE,FL,LAKE
32066,"MAYO, FL",MAYO,FL,LAFAYETTE
32062,"MC ALPIN, FL",MC ALPIN,FL,SUWANNEE
32568,"MC DAVID, FL",MC DAVID,FL,ESCAMBIA
32664,"MC INTOSH, FL",MC INTOSH,FL,MARION
32901,"MELBOURNE, FL",MELBOURNE,FL,BREVARD
32902,"MELBOURNE, FL",MELBOURNE,FL,BREVARD
32904,"MELBOURNE, FL",MELBOURNE,FL,BREVARD
32912,"MELBOURNE, FL",MELBOURNE,FL,BREVARD
32919,"MELBOURNE, FL",MELBOURNE,FL,BREVARD
32934,"MELBOURNE, FL",MELBOURNE,FL,BREVARD
32935,"MELBOURNE, FL",MELBOURNE,FL,BREVARD
32936,"MELBOURNE, FL",MELBOURNE,FL,BREVARD
32940,"MELBOURNE, FL",MELBOURNE,FL,BREVARD
32941,"MELBOURNE, FL",MELBOURNE,FL,BREVARD
32951,"MELBOURNE BEACH, FL",MELBOURNE BEACH,FL,BREVARD
32666,"MELROSE, FL",MELROSE,FL,PUTNAM
32952,"MERRITT ISLAND, FL",MERRITT ISLAND,FL,BREVARD
32953,"MERRITT ISLAND, FL",MERRITT ISLAND,FL,BREVARD
32954,"MERRITT ISLAND, FL",MERRITT ISLAND,FL,BREVARD
32410,"MEXICO BEACH, FL",MEXICO BEACH,FL,BAY
33101,"MIAMI, FL",MIAMI,FL,MIAMI-DADE
33102,"MIAMI, FL",MIAMI,FL,MIAMI-DADE
33106,"MIAMI, FL",MIAMI,FL,MIAMI-DADE
33111,"MIAMI, FL",MIAMI,FL,MIAMI-DADE
33112,"MIAMI, FL",MIAMI,FL,MIAMI-DADE
33116,"MIAMI, FL",MIAMI,FL,MIAMI-DADE
33122,"MIAMI, FL",MIAMI,FL,MIAMI-DADE
33124,"MIAMI, FL",MIAMI,FL,MIAMI-DADE
33125,"MIAMI, FL",MIAMI,FL,MIAMI-DADE
33126,"MIAMI, FL",MIAMI,FL,MIAMI-DADE
33127,"MIAMI, FL",MIAMI,FL,MIAMI-DADE
33128,"MIAMI, FL",MIAMI,FL,MIAMI-DADE
33129,"MIAMI, FL",MIAMI,FL,MIAMI-DADE
33130,"MIAMI, FL",MIAMI,FL,MIAMI-DADE
33131,"MIAMI, FL",MIAMI,FL,MIAMI-DADE
33132,"MIAMI, FL",MIAMI,FL,MIAMI-DADE
33133,"MIAMI, FL",MIAMI,FL,MIAMI-DADE
33134,"MIAMI, FL",MIAMI,FL,MIAMI-DADE
33135,"MIAMI, FL",MIAMI,FL,MIAMI-DADE
33136,"MIAMI, FL",MIAMI,FL,MIAMI-DADE
33137,"MIAMI, FL",MIAMI,FL,MIAMI-DADE
33138,"MIAMI, FL",MIAMI,FL,MIAMI-DADE
33142,"MIAMI, FL",MIAMI,FL,MIAMI-DADE
33143,"MIAMI, FL",MIAMI,FL,MIAMI-DADE
33144,"MIAMI, FL",MIAMI,FL,MIAMI-DADE
33145,"MIAMI, FL",MIAMI,FL,MIAMI-DADE
33146,"MIAMI, FL",MIAMI,FL,MIAMI-DADE
33147,"MIAMI, FL",MIAMI,FL,MIAMI-DADE
33150,"MIAMI, FL",MIAMI,FL,MIAMI-DADE
33151,"MIAMI, FL",MIAMI,FL,MIAMI-DADE
33152,"MIAMI, FL",MIAMI,FL,MIAMI-DADE
33153,"MIAMI, FL",MIAMI,FL,MIAMI-DADE
33155,"MIAMI, FL",MIAMI,FL,MIAMI-DADE
33156,"MIAMI, FL",MIAMI,FL,MIAMI-DADE
33157,"MIAMI, FL",MIAMI,FL,MIAMI-DADE
33158,"MIAMI, FL",MIAMI,FL,MIAMI-DADE
33159,"MIAMI, FL",MIAMI,FL,MIAMI-DADE
33161,"MIAMI, FL",MIAMI,FL,MIAMI-DADE
33162,"MIAMI, FL",MIAMI,FL,MIAMI-DADE
33163,"MIAMI, FL",MIAMI,FL,MIAMI-DADE
33164,"MIAMI, FL",MIAMI,FL,MIAMI-DADE
33165,"MIAMI, FL",MIAMI,FL,MIAMI-DADE
33166,"MIAMI, FL",MIAMI,FL,MIAMI-DADE
33167,"MIAMI, FL",MIAMI,FL,MIAMI-DADE
33168,"MIAMI, FL",MIAMI,FL,MIAMI-DADE
33169,"MIAMI, FL",MIAMI,FL,MIAMI-DADE
33170,"MIAMI, FL",MIAMI,FL,MIAMI-DADE
33172,"MIAMI, FL",MIAMI,FL,MIAMI-DADE
33173,"MIAMI, FL",MIAMI,FL,MIAMI-DADE
33174,"MIAMI, FL",MIAMI,FL,MIAMI-DADE
33175,"MIAMI, FL",MIAMI,FL,MIAMI-DADE
33176,"MIAMI, FL",MIAMI,FL,MIAMI-DADE
33177,"MIAMI, FL",MIAMI,FL,MIAMI-DADE
33178,"MIAMI, FL",MIAMI,FL,MIAMI-DADE
33179,"MIAMI, FL",MIAMI,FL,MIAMI-DADE
33180,"MIAMI, FL",MIAMI,FL,MIAMI-DADE
33181,"MIAMI, FL",MIAMI,FL,MIAMI-DADE
33182,"MIAMI, FL",MIAMI,FL,MIAMI-DADE
33183,"MIAMI, FL",MIAMI,FL,MIAMI-DADE
33184,"MIAMI, FL",MIAMI,FL,MIAMI-DADE
33185,"MIAMI, FL",MIAMI,FL,MIAMI-DADE
33186,"MIAMI, FL",MIAMI,FL,MIAMI-DADE
33187,"MIAMI, FL",MIAMI,FL,MIAMI-DADE
33188,"MIAMI, FL",MIAMI,FL,MIAMI-DADE
33189,"MIAMI, FL",MIAMI,FL,MIAMI-DADE
33190,"MIAMI, FL",MIAMI,FL,MIAMI-DADE
33193,"MIAMI, FL",MIAMI,FL,MIAMI-DADE
33194,"MIAMI, FL",MIAMI,FL,MIAMI-DADE
33196,"MIAMI, FL",MIAMI,FL,MIAMI-DADE
33197,"MIAMI, FL",MIAMI,FL,MIAMI-DADE
33199,"MIAMI, FL",MIAMI,FL,MIAMI-DADE
33206,"MIAMI, FL",MIAMI,FL,MIAMI-DADE
33222,"MIAMI, FL",MIAMI,FL,MIAMI-DADE
33231,"MIAMI, FL",MIAMI,FL,MIAMI-DADE
33233,"MIAMI, FL",MIAMI,FL,MIAMI-DADE
33234,"MIAMI, FL",MIAMI,FL,MIAMI-DADE
33238,"MIAMI, FL",MIAMI,FL,MIAMI-DADE
33243,"MIAMI, FL",MIAMI,FL,MIAMI-DADE
33245,"MIAMI, FL",MIAMI,FL,MIAMI-DADE
33247,"MIAMI, FL",MIAMI,FL,MIAMI-DADE
33255,"MIAMI, FL",MIAMI,FL,MIAMI-DADE
33256,"MIAMI, FL",MIAMI,FL,MIAMI-DADE
33257,"MIAMI, FL",MIAMI,FL,MIAMI-DADE
33261,"MIAMI, FL",MIAMI,FL,MIAMI-DADE
33265,"MIAMI, FL",MIAMI,FL,MIAMI-DADE
33266,"MIAMI, FL",MIAMI,FL,MIAMI-DADE
33269,"MIAMI, FL",MIAMI,FL,MIAMI-DADE
33280,"MIAMI, FL",MIAMI,FL,MIAMI-DADE
33283,"MIAMI, FL",MIAMI,FL,MIAMI-DADE
33296,"MIAMI, FL",MIAMI,FL,MIAMI-DADE
33299,"MIAMI, FL",MIAMI,FL,MIAMI-DADE
33109,"MIAMI BEACH, FL",MIAMI BEACH,FL,MIAMI-DADE
33119,"MIAMI BEACH, FL",MIAMI BEACH,FL,MIAMI-DADE
33139,"MIAMI BEACH, FL",MIAMI BEACH,FL,MIAMI-DADE
33140,"MIAMI BEACH, FL",MIAMI BEACH,FL,MIAMI-DADE
33141,"MIAMI BEACH, FL",MIAMI BEACH,FL,MIAMI-DADE
33154,"MIAMI BEACH, FL",MIAMI BEACH,FL,MIAMI-DADE
33239,"MIAMI BEACH, FL",MIAMI BEACH,FL,MIAMI-DADE
33056,"MIAMI GARDENS, FL",MIAMI GARDENS,FL,MIAMI-DADE
32667,"MICANOPY, FL",MICANOPY,FL,ALACHUA
32745,"MID FLORIDA, FL",MID FLORIDA,FL,SEMINOLE
32799,"MID FLORIDA, FL",MID FLORIDA,FL,SEMINOLE
32050,"MIDDLEBURG, FL",MIDDLEBURG,FL,CLAY
32068,"MIDDLEBURG, FL",MIDDLEBURG,FL,CLAY
32343,"MIDWAY, FL",MIDWAY,FL,GADSDEN
32537,"MILLIGAN, FL",MILLIGAN,FL,OKALOOSA
32570,"MILTON, FL",MILTON,FL,SANTA ROSA
32571,"MILTON, FL",MILTON,FL,SANTA ROSA
32572,"MILTON, FL",MILTON,FL,SANTA ROSA
32583,"MILTON, FL",MILTON,FL,SANTA ROSA
32754,"MIMS, FL",MIMS,FL,BREVARD
34755,"MINNEOLA, FL",MINNEOLA,FL,LAKE
32550,"MIRAMAR BEACH, FL",MIRAMAR BEACH,FL,WALTON
32577,"MOLINO, FL",MOLINO,FL,ESCAMBIA
32344,"MONTICELLO, FL",MONTICELLO,FL,JEFFERSON
32345,"MONTICELLO, FL",MONTICELLO,FL,JEFFERSON
34756,"MONTVERDE, FL",MONTVERDE,FL,LAKE
33471,"MOORE HAVEN, FL",MOORE HAVEN,FL,GLADES
32668,"MORRISTON, FL",MORRISTON,FL,LEVY
32434,"MOSSY HEAD, FL",MOSSY HEAD,FL,WALTON
32756,"MOUNT DORA, FL",MOUNT DORA,FL,LAKE
32757,"MOUNT DORA, FL",MOUNT DORA,FL,LAKE
33860,"MULBERRY, FL",MULBERRY,FL,POLK
33938,"MURDOCK, FL",MURDOCK,FL,CHARLOTTE
34251,"MYAKKA CITY, FL",MYAKKA CITY,FL,MANATEE
33856,"NALCREST, FL",NALCREST,FL,POLK
34101,"NAPLES, FL",NAPLES,FL,COLLIER
34102,"NAPLES, FL",NAPLES,FL,COLLIER
34103,"NAPLES, FL",NAPLES,FL,COLLIER
34104,"NAPLES, FL",NAPLES,FL,COLLIER
34105,"NAPLES, FL",NAPLES,FL,COLLIER
34106,"NAPLES, FL",NAPLES,FL,COLLIER
34107,"NAPLES, FL",NAPLES,FL,COLLIER
34108,"NAPLES, FL",NAPLES,FL,COLLIER
34109,"NAPLES, FL",NAPLES,FL,COLLIER
34110,"NAPLES, FL",NAPLES,FL,COLLIER
34112,"NAPLES, FL",NAPLES,FL,COLLIER
34113,"NAPLES, FL",NAPLES,FL,COLLIER
34114,"NAPLES, FL",NAPLES,FL,COLLIER
34116,"NAPLES, FL",NAPLES,FL,COLLIER
34117,"NAPLES, FL",NAPLES,FL,COLLIER
34119,"NAPLES, FL",NAPLES,FL,COLLIER
34120,"NAPLES, FL",NAPLES,FL,COLLIER
32566,"NAVARRE, FL",NAVARRE,FL,SANTA ROSA
32266,"NEPTUNE BEACH, FL",NEPTUNE BEACH,FL,DUVAL
34652,"NEW PORT RICHEY, FL",NEW PORT RICHEY,FL,PASCO
34653,"NEW PORT RICHEY, FL",NEW PORT RICHEY,FL,PASCO
34654,"NEW PORT RICHEY, FL",NEW PORT RICHEY,FL,PASCO
34655,"NEW PORT RICHEY, FL",NEW PORT RICHEY,FL,PASCO
34656,"NEW PORT RICHEY, FL",NEW PORT RICHEY,FL,PASCO
32168,"NEW SMYRNA BEACH, FL",NEW SMYRNA BEACH,FL,VOLUSIA
32169,"NEW SMYRNA BEACH, FL",NEW SMYRNA BEACH,FL,VOLUSIA
32170,"NEW SMYRNA BEACH, FL",NEW SMYRNA BEACH,FL,VOLUSIA
32669,"NEWBERRY, FL",NEWBERRY,FL,ALACHUA
32578,"NICEVILLE, FL",NICEVILLE,FL,OKALOOSA
32588,"NICEVILLE, FL",NICEVILLE,FL,OKALOOSA
33863,"NICHOLS, FL",NICHOLS,FL,POLK
34661,"NOBLETON, FL",NOBLETON,FL,HERNANDO
34268,"NOCATEE, FL",NOCATEE,FL,DE SOTO
34274,"NOKOMIS, FL",NOKOMIS,FL,SARASOTA
34275,"NOKOMIS, FL",NOKOMIS,FL,SARASOTA
32452,"NOMA, FL",NOMA,FL,HOLMES
33903,"NORTH FORT MYERS, FL",NORTH FORT MYERS,FL,LEE
33917,"NORTH FORT MYERS, FL",NORTH FORT MYERS,FL,LEE
33918,"NORTH FORT MYERS, FL",NORTH FORT MYERS,FL,LEE
33160,"NORTH MIAMI BEACH, FL",NORTH MIAMI BEACH,FL,MIAMI-DADE
33408,"NORTH PALM BEACH, FL",NORTH PALM BEACH,FL,PALM BEACH
34286,"NORTH PORT, FL",NORTH PORT,FL,SARASOTA
34287,"NORTH PORT, FL",NORTH PORT,FL,SARASOTA
34288,"NORTH PORT, FL",NORTH PORT,FL,SARASOTA
34289,"NORTH PORT, FL",NORTH PORT,FL,SARASOTA
34290,"NORTH PORT, FL",NORTH PORT,FL,SARASOTA
34291,"NORTH PORT, FL",NORTH PORT,FL,SARASOTA
32071,"O BRIEN, FL",O BRIEN,FL,SUWANNEE
32759,"OAK HILL, FL",OAK HILL,FL,VOLUSIA
34760,"OAKLAND, FL",OAKLAND,FL,ORANGE
34470,"OCALA, FL",OCALA,FL,MARION
34471,"OCALA, FL",OCALA,FL,MARION
34472,"OCALA, FL",OCALA,FL,MARION
34473,"OCALA, FL",OCALA,FL,MARION
34474,"OCALA, FL",OCALA,FL,MARION
34475,"OCALA, FL",OCALA,FL,MARION
34476,"OCALA, FL",OCALA,FL,MARION
34477,"OCALA, FL",OCALA,FL,MARION
34478,"OCALA, FL",OCALA,FL,MARION
34479,"OCALA, FL",OCALA,FL,MARION
34480,"OCALA, FL",OCALA,FL,MARION
34481,"OCALA, FL",OCALA,FL,MARION
34482,"OCALA, FL",OCALA,FL,MARION
34483,"OCALA, FL",OCALA,FL,MARION
34141,"OCHOPEE, FL",OCHOPEE,FL,COLLIER
32179,"OCKLAWAHA, FL",OCKLAWAHA,FL,MARION
32183,"OCKLAWAHA, FL",OCKLAWAHA,FL,MARION
34761,"OCOEE, FL",OCOEE,FL,ORANGE
33556,"ODESSA, FL",ODESSA,FL,HILLSBOROUGH
34762,"OKAHUMPKA, FL",OKAHUMPKA,FL,LAKE
34972,"OKEECHOBEE, FL",OKEECHOBEE,FL,OKEECHOBEE
34973,"OKEECHOBEE, FL",OKEECHOBEE,FL,OKEECHOBEE
34974,"OKEECHOBEE, FL",OKEECHOBEE,FL,OKEECHOBEE
32680,"OLD TOWN, FL",OLD TOWN,FL,DIXIE
34677,"OLDSMAR, FL",OLDSMAR,FL,PINELLAS
32072,"OLUSTEE, FL",OLUSTEE,FL,BAKER
33865,"ONA, FL",ONA,FL,HARDEE
34264,"ONECO, FL",ONECO,FL,MANATEE
33054,"OPA LOCKA, FL",OPA LOCKA,FL,MIAMI-DADE
33055,"OPA LOCKA, FL",OPA LOCKA,FL,MIAMI-DADE
32763,"ORANGE CITY, FL",ORANGE CITY,FL,VOLUSIA
32774,"ORANGE CITY, FL",ORANGE CITY,FL,VOLUSIA
32681,"ORANGE LAKE, FL",ORANGE LAKE,FL,MARION
32065,"ORANGE PARK, FL",ORANGE PARK,FL,CLAY
32067,"ORANGE PARK, FL",ORANGE PARK,FL,CLAY
32073,"ORANGE PARK, FL",ORANGE PARK,FL,CLAY
32182,"ORANGE SPRINGS, FL",ORANGE SPRINGS,FL,MARION
32815,"ORLANDO, FL",ORLANDO,FL,BREVARD
32899,"ORLANDO, FL",ORLANDO,FL,BREVARD
32801,"ORLANDO, FL",ORLANDO,FL,ORANGE
32802,"ORLANDO, FL",ORLANDO,FL,ORANGE
32803,"ORLANDO, FL",ORLANDO,FL,ORANGE
32804,"ORLANDO, FL",ORLANDO,FL,ORANGE
32805,"ORLANDO, FL",ORLANDO,FL,ORANGE
32806,"ORLANDO, FL",ORLANDO,FL,ORANGE
32807,"ORLANDO, FL",ORLANDO,FL,ORANGE
32808,"ORLANDO, FL",ORLANDO,FL,ORANGE
32809,"ORLANDO, FL",ORLANDO,FL,ORANGE
32810,"ORLANDO, FL",ORLANDO,FL,ORANGE
32811,"ORLANDO, FL",ORLANDO,FL,ORANGE
32812,"ORLANDO, FL",ORLANDO,FL,ORANGE
32814,"ORLANDO, FL",ORLANDO,FL,ORANGE
32816,"ORLANDO, FL",ORLANDO,FL,ORANGE
32817,"ORLANDO, FL",ORLANDO,FL,ORANGE
32818,"ORLANDO, FL",ORLANDO,FL,ORANGE
32819,"ORLANDO, FL",ORLANDO,FL,ORANGE
32820,"ORLANDO, FL",ORLANDO,FL,ORANGE
32821,"ORLANDO, FL",ORLANDO,FL,ORANGE
32822,"ORLANDO, FL",ORLANDO,FL,ORANGE
32824,"ORLANDO, FL",ORLANDO,FL,ORANGE
32825,"ORLANDO, FL",ORLANDO,FL,ORANGE
32826,"ORLANDO, FL",ORLANDO,FL,ORANGE
32827,"ORLANDO, FL",ORLANDO,FL,ORANGE
32828,"ORLANDO, FL",ORLANDO,FL,ORANGE
32829,"ORLANDO, FL",ORLANDO,FL,ORANGE
32830,"ORLANDO, FL",ORLANDO,FL,ORANGE
32831,"ORLANDO, FL",ORLANDO,FL,ORANGE
32832,"ORLANDO, FL",ORLANDO,FL,ORANGE
32833,"ORLANDO, FL",ORLANDO,FL,ORANGE
32834,"ORLANDO, FL",ORLANDO,FL,ORANGE
32835,"ORLANDO, FL",ORLANDO,FL,ORANGE
32836,"ORLANDO, FL",ORLANDO,FL,ORANGE
32837,"ORLANDO, FL",ORLANDO,FL,ORANGE
32839,"ORLANDO, FL",ORLANDO,FL,ORANGE
32853,"ORLANDO, FL",ORLANDO,FL,ORANGE
32854,"ORLANDO, FL",ORLANDO,FL,ORANGE
32855,"ORLANDO, FL",ORLANDO,FL,ORANGE
32856,"ORLANDO, FL",ORLANDO,FL,ORANGE
32857,"ORLANDO, FL",ORLANDO,FL,ORANGE
32858,"ORLANDO, FL",ORLANDO,FL,ORANGE
32859,"ORLANDO, FL",ORLANDO,FL,ORANGE
32860,"ORLANDO, FL",ORLANDO,FL,ORANGE
32861,"ORLANDO, FL",ORLANDO,FL,ORANGE
32862,"ORLANDO, FL",ORLANDO,FL,ORANGE
32867,"ORLANDO, FL",ORLANDO,FL,ORANGE
32868,"ORLANDO, FL",ORLANDO,FL,ORANGE
32869,"ORLANDO, FL",ORLANDO,FL,ORANGE
32872,"ORLANDO, FL",ORLANDO,FL,ORANGE
32877,"ORLANDO, FL",ORLANDO,FL,ORANGE
32878,"ORLANDO, FL",ORLANDO,FL,ORANGE
32885,"ORLANDO, FL",ORLANDO,FL,ORANGE
32887,"ORLANDO, FL",ORLANDO,FL,ORANGE
32897,"ORLANDO, FL",ORLANDO,FL,ORANGE
32173,"ORMOND BEACH, FL",ORMOND BEACH,FL,VOLUSIA
32174,"ORMOND BEACH, FL",ORMOND BEACH,FL,VOLUSIA
32175,"ORMOND BEACH, FL",ORMOND BEACH,FL,VOLUSIA
32176,"ORMOND BEACH, FL",ORMOND BEACH,FL,VOLUSIA
34229,"OSPREY, FL",OSPREY,FL,SARASOTA
32764,"OSTEEN, FL",OSTEEN,FL,VOLUSIA
32683,"OTTER CREEK, FL",OTTER CREEK,FL,LEVY
32762,"OVIEDO, FL",OVIEDO,FL,SEMINOLE
32765,"OVIEDO, FL",OVIEDO,FL,SEMINOLE
32766,"OVIEDO, FL",OVIEDO,FL,SEMINOLE
34484,"OXFORD, FL",OXFORD,FL,SUMTER
34660,"OZONA, FL",OZONA,FL,PINELLAS
33476,"PAHOKEE, FL",PAHOKEE,FL,PALM BEACH
32767,"PAISLEY, FL",PAISLEY,FL,LAKE
32177,"PALATKA, FL",PALATKA,FL,PUTNAM
32178,"PALATKA, FL",PALATKA,FL,PUTNAM
32905,"PALM BAY, FL",PALM BAY,FL,BREVARD
32906,"PALM BAY, FL",PALM BAY,FL,BREVARD
32907,"PALM BAY, FL",PALM BAY,FL,BREVARD
32908,"PALM BAY, FL",PALM BAY,FL,BREVARD
32909,"PALM BAY, FL",PALM BAY,FL,BREVARD
32910,"PALM BAY, FL",PALM BAY,FL,BREVARD
32911,"PALM BAY, FL",PALM BAY,FL,BREVARD
33480,"PALM BEACH, FL",PALM BEACH,FL,PALM BEACH
33410,"PALM BEACH GARDENS, FL",PALM BEACH GARDENS,FL,PALM BEACH
33418,"PALM BEACH GARDENS, FL",PALM BEACH GARDENS,FL,PALM BEACH
34990,"PALM CITY, FL",PALM CITY,FL,MARTIN
34991,"PALM CITY, FL",PALM CITY,FL,MARTIN
32135,"PALM COAST, FL",PALM COAST,FL,FLAGLER
32137,"PALM COAST, FL",PALM COAST,FL,FLAGLER
32164,"PALM COAST, FL",PALM COAST,FL,FLAGLER
34682,"PALM HARBOR, FL",PALM HARBOR,FL,PINELLAS
34683,"PALM HARBOR, FL",PALM HARBOR,FL,PINELLAS
34684,"PALM HARBOR, FL",PALM HARBOR,FL,PINELLAS
34685,"PALM HARBOR, FL",PALM HARBOR,FL,PINELLAS
33944,"PALMDALE, FL",PALMDALE,FL,GLADES
34220,"PALMETTO, FL",PALMETTO,FL,MANATEE
34221,"PALMETTO, FL",PALMETTO,FL,MANATEE
32346,"PANACEA, FL",PANACEA,FL,WAKULLA
32401,"PANAMA CITY, FL",PANAMA CITY,FL,BAY
32402,"PANAMA CITY, FL",PANAMA CITY,FL,BAY
32403,"PANAMA CITY, FL",PANAMA CITY,FL,BAY
32404,"PANAMA CITY, FL",PANAMA CITY,FL,BAY
32405,"PANAMA CITY, FL",PANAMA CITY,FL,BAY
32406,"PANAMA CITY, FL",PANAMA CITY,FL,BAY
32408,"PANAMA CITY, FL",PANAMA CITY,FL,BAY
32409,"PANAMA CITY, FL",PANAMA CITY,FL,BAY
32411,"PANAMA CITY, FL",PANAMA CITY,FL,BAY
32412,"PANAMA CITY, FL",PANAMA CITY,FL,BAY
32417,"PANAMA CITY, FL",PANAMA CITY,FL,BAY
32407,"PANAMA CITY BEACH, FL",PANAMA CITY BEACH,FL,BAY
32413,"PANAMA CITY BEACH, FL",PANAMA CITY BEACH,FL,BAY
34219,"PARRISH, FL",PARRISH,FL,MANATEE
32925,"PATRICK AFB, FL",PATRICK AFB,FL,BREVARD
32538,"PAXTON, FL",PAXTON,FL,WALTON
33028,"PEMBROKE PINES, FL",PEMBROKE PINES,FL,BROWARD
33082,"PEMBROKE PINES, FL",PEMBROKE PINES,FL,BROWARD
32079,"PENNEY FARMS, FL",PENNEY FARMS,FL,CLAY
32501,"PENSACOLA, FL",PENSACOLA,FL,ESCAMBIA
32502,"PENSACOLA, FL",PENSACOLA,FL,ESCAMBIA
32503,"PENSACOLA, FL",PENSACOLA,FL,ESCAMBIA
32504,"PENSACOLA, FL",PENSACOLA,FL,ESCAMBIA
32505,"PENSACOLA, FL",PENSACOLA,FL,ESCAMBIA
32506,"PENSACOLA, FL",PENSACOLA,FL,ESCAMBIA
32507,"PENSACOLA, FL",PENSACOLA,FL,ESCAMBIA
32508,"PENSACOLA, FL",PENSACOLA,FL,ESCAMBIA
32509,"PENSACOLA, FL",PENSACOLA,FL,ESCAMBIA
32511,"PENSACOLA, FL",PENSACOLA,FL,ESCAMBIA
32512,"PENSACOLA, FL",PENSACOLA,FL,ESCAMBIA
32513,"PENSACOLA, FL",PENSACOLA,FL,ESCAMBIA
32514,"PENSACOLA, FL",PENSACOLA,FL,ESCAMBIA
32516,"PENSACOLA, FL",PENSACOLA,FL,ESCAMBIA
32520,"PENSACOLA, FL",PENSACOLA,FL,ESCAMBIA
32521,"PENSACOLA, FL",PENSACOLA,FL,ESCAMBIA
32522,"PENSACOLA, FL",PENSACOLA,FL,ESCAMBIA
32523,"PENSACOLA, FL",PENSACOLA,FL,ESCAMBIA
32524,"PENSACOLA, FL",PENSACOLA,FL,ESCAMBIA
32526,"PENSACOLA, FL",PENSACOLA,FL,ESCAMBIA
32534,"PENSACOLA, FL",PENSACOLA,FL,ESCAMBIA
32591,"PENSACOLA, FL",PENSACOLA,FL,ESCAMBIA
32347,"PERRY, FL",PERRY,FL,TAYLOR
32348,"PERRY, FL",PERRY,FL,TAYLOR
32180,"PIERSON, FL",PIERSON,FL,VOLUSIA
33945,"PINELAND, FL",PINELAND,FL,LEE
33780,"PINELLAS PARK, FL",PINELLAS PARK,FL,PINELLAS
33781,"PINELLAS PARK, FL",PINELLAS PARK,FL,PINELLAS
33782,"PINELLAS PARK, FL",PINELLAS PARK,FL,PINELLAS
32350,"PINETTA, FL",PINETTA,FL,MADISON
33946,"PLACIDA, FL",PLACIDA,FL,CHARLOTTE
33563,"PLANT CITY, FL",PLANT CITY,FL,HILLSBOROUGH
33564,"PLANT CITY, FL",PLANT CITY,FL,HILLSBOROUGH
33565,"PLANT CITY, FL",PLANT CITY,FL,HILLSBOROUGH
33566,"PLANT CITY, FL",PLANT CITY,FL,HILLSBOROUGH
33567,"PLANT CITY, FL",PLANT CITY,FL,HILLSBOROUGH
33388,"PLANTATION, FL",PLANTATION,FL,BROWARD
32768,"PLYMOUTH, FL",PLYMOUTH,FL,ORANGE
33868,"POLK CITY, FL",POLK CITY,FL,POLK
32181,"POMONA PARK, FL",POMONA PARK,FL,PUTNAM
33060,"POMPANO BEACH, FL",POMPANO BEACH,FL,BROWARD
33061,"POMPANO BEACH, FL",POMPANO BEACH,FL,BROWARD
33062,"POMPANO BEACH, FL",POMPANO BEACH,FL,BROWARD
33063,"POMPANO BEACH, FL",POMPANO BEACH,FL,BROWARD
33064,"POMPANO BEACH, FL",POMPANO BEACH,FL,BROWARD
33065,"POMPANO BEACH, FL",POMPANO BEACH,FL,BROWARD
33066,"POMPANO BEACH, FL",POMPANO BEACH,FL,BROWARD
33067,"POMPANO BEACH, FL",POMPANO BEACH,FL,BROWARD
33068,"POMPANO BEACH, FL",POMPANO BEACH,FL,BROWARD
33069,"POMPANO BEACH, FL",POMPANO BEACH,FL,BROWARD
33071,"POMPANO BEACH, FL",POMPANO BEACH,FL,BROWARD
33072,"POMPANO BEACH, FL",POMPANO BEACH,FL,BROWARD
33073,"POMPANO BEACH, FL",POMPANO BEACH,FL,BROWARD
33074,"POMPANO BEACH, FL",POMPANO BEACH,FL,BROWARD
33076,"POMPANO BEACH, FL",POMPANO BEACH,FL,BROWARD
33077,"POMPANO BEACH, FL",POMPANO BEACH,FL,BROWARD
32455,"PONCE DE LEON, FL",PONCE DE LEON,FL,HOLMES
32081,"PONTE VEDRA, FL",PONTE VEDRA,FL,SAINT JOHNS
32004,"PONTE VEDRA BEACH, FL",PONTE VEDRA BEACH,FL,SAINT JOHNS
32082,"PONTE VEDRA BEACH, FL",PONTE VEDRA BEACH,FL,SAINT JOHNS
33948,"PORT CHARLOTTE, FL",PORT CHARLOTTE,FL,CHARLOTTE
33949,"PORT CHARLOTTE, FL",PORT CHARLOTTE,FL,CHARLOTTE
33952,"PORT CHARLOTTE, FL",PORT CHARLOTTE,FL,CHARLOTTE
33953,"PORT CHARLOTTE, FL",PORT CHARLOTTE,FL,CHARLOTTE
33954,"PORT CHARLOTTE, FL",PORT CHARLOTTE,FL,CHARLOTTE
33981,"PORT CHARLOTTE, FL",PORT CHARLOTTE,FL,CHARLOTTE
32123,"PORT ORANGE, FL",PORT ORANGE,FL,VOLUSIA
32127,"PORT ORANGE, FL",PORT ORANGE,FL,VOLUSIA
32128,"PORT ORANGE, FL",PORT ORANGE,FL,VOLUSIA
32129,"PORT ORANGE, FL",PORT ORANGE,FL,VOLUSIA
34668,"PORT RICHEY, FL",PORT RICHEY,FL,PASCO
34673,"PORT RICHEY, FL",PORT RICHEY,FL,PASCO
32456,"PORT SAINT JOE, FL",PORT SAINT JOE,FL,GULF
32457,"PORT SAINT JOE, FL",PORT SAINT JOE,FL,GULF
34952,"PORT SAINT LUCIE, FL",PORT SAINT LUCIE,FL,SAINT LUCIE
34953,"PORT SAINT LUCIE, FL",PORT SAINT LUCIE,FL,SAINT LUCIE
34983,"PORT SAINT LUCIE, FL",PORT SAINT LUCIE,FL,SAINT LUCIE
34984,"PORT SAINT LUCIE, FL",PORT SAINT LUCIE,FL,SAINT LUCIE
34985,"PORT SAINT LUCIE, FL",PORT SAINT LUCIE,FL,SAINT LUCIE
34986,"PORT SAINT LUCIE, FL",PORT SAINT LUCIE,FL,SAINT LUCIE
34987,"PORT SAINT LUCIE, FL",PORT SAINT LUCIE,FL,SAINT LUCIE
34988,"PORT SAINT LUCIE, FL",PORT SAINT LUCIE,FL,SAINT LUCIE
34992,"PORT SALERNO, FL",PORT SALERNO,FL,MARTIN
33950,"PUNTA GORDA, FL",PUNTA GORDA,FL,CHARLOTTE
33951,"PUNTA GORDA, FL",PUNTA GORDA,FL,CHARLOTTE
33955,"PUNTA GORDA, FL",PUNTA GORDA,FL,CHARLOTTE
33980,"PUNTA GORDA, FL",PUNTA GORDA,FL,CHARLOTTE
33982,"PUNTA GORDA, FL",PUNTA GORDA,FL,CHARLOTTE
33983,"PUNTA GORDA, FL",PUNTA GORDA,FL,CHARLOTTE
32185,"PUTNAM HALL, FL",PUTNAM HALL,FL,PUTNAM
32351,"QUINCY, FL",QUINCY,FL,GADSDEN
32352,"QUINCY, FL",QUINCY,FL,GADSDEN
32353,"QUINCY, FL",QUINCY,FL,GADSDEN
32026,"RAIFORD, FL",RAIFORD,FL,UNION
32083,"RAIFORD, FL",RAIFORD,FL,UNION
32686,"REDDICK, FL",REDDICK,FL,MARION
33867,"RIVER RANCH, FL",RIVER RANCH,FL,POLK
33568,"RIVERVIEW, FL",RIVERVIEW,FL,HILLSBOROUGH
33569,"RIVERVIEW, FL",RIVERVIEW,FL,HILLSBOROUGH
33578,"RIVERVIEW, FL",RIVERVIEW,FL,HILLSBOROUGH
33579,"RIVERVIEW, FL",RIVERVIEW,FL,HILLSBOROUGH
32955,"ROCKLEDGE, FL",ROCKLEDGE,FL,BREVARD
32956,"ROCKLEDGE, FL",ROCKLEDGE,FL,BREVARD
32957,"ROSELAND, FL",ROSELAND,FL,INDIAN RIVER
32461,"ROSEMARY BEACH, FL",ROSEMARY BEACH,FL,WALTON
33947,"ROTONDA WEST, FL",ROTONDA WEST,FL,CHARLOTTE
33421,"ROYAL PALM BEACH, FL",ROYAL PALM BEACH,FL,PALM BEACH
33570,"RUSKIN, FL",RUSKIN,FL,HILLSBOROUGH
33575,"RUSKIN, FL",RUSKIN,FL,HILLSBOROUGH
34695,"SAFETY HARBOR, FL",SAFETY HARBOR,FL,PINELLAS
32080,"SAINT AUGUSTINE, FL",SAINT AUGUSTINE,FL,SAINT JOHNS
32084,"SAINT AUGUSTINE, FL",SAINT AUGUSTINE,FL,SAINT JOHNS
32085,"SAINT AUGUSTINE, FL",SAINT AUGUSTINE,FL,SAINT JOHNS
32086,"SAINT AUGUSTINE, FL",SAINT AUGUSTINE,FL,SAINT JOHNS
32092,"SAINT AUGUSTINE, FL",SAINT AUGUSTINE,FL,SAINT JOHNS
32095,"SAINT AUGUSTINE, FL",SAINT AUGUSTINE,FL,SAINT JOHNS
34769,"SAINT CLOUD, FL",SAINT CLOUD,FL,OSCEOLA
34770,"SAINT CLOUD, FL",SAINT CLOUD,FL,OSCEOLA
34771,"SAINT CLOUD, FL",SAINT CLOUD,FL,OSCEOLA
34772,"SAINT CLOUD, FL",SAINT CLOUD,FL,OSCEOLA
34773,"SAINT CLOUD, FL",SAINT CLOUD,FL,OSCEOLA
33956,"SAINT JAMES CITY, FL",SAINT JAMES CITY,FL,LEE
32259,"SAINT JOHNS, FL",SAINT JOHNS,FL,SAINT JOHNS
33574,"SAINT LEO, FL",SAINT LEO,FL,PASCO
32355,"SAINT MARKS, FL",SAINT MARKS,FL,WAKULLA
33701,"SAINT PETERSBURG, FL",SAINT PETERSBURG,FL,PINELLAS
33702,"SAINT PETERSBURG, FL",SAINT PETERSBURG,FL,PINELLAS
33703,"SAINT PETERSBURG, FL",SAINT PETERSBURG,FL,PINELLAS
33704,"SAINT PETERSBURG, FL",SAINT PETERSBURG,FL,PINELLAS
33705,"SAINT PETERSBURG, FL",SAINT PETERSBURG,FL,PINELLAS
33706,"SAINT PETERSBURG, FL",SAINT PETERSBURG,FL,PINELLAS
33707,"SAINT PETERSBURG, FL",SAINT PETERSBURG,FL,PINELLAS
33708,"SAINT PETERSBURG, FL",SAINT PETERSBURG,FL,PINELLAS
33709,"SAINT PETERSBURG, FL",SAINT PETERSBURG,FL,PINELLAS
33710,"SAINT PETERSBURG, FL",SAINT PETERSBURG,FL,PINELLAS
33711,"SAINT PETERSBURG, FL",SAINT PETERSBURG,FL,PINELLAS
33712,"SAINT PETERSBURG, FL",SAINT PETERSBURG,FL,PINELLAS
33713,"SAINT PETERSBURG, FL",SAINT PETERSBURG,FL,PINELLAS
33714,"SAINT PETERSBURG, FL",SAINT PETERSBURG,FL,PINELLAS
33715,"SAINT PETERSBURG, FL",SAINT PETERSBURG,FL,PINELLAS
33716,"SAINT PETERSBURG, FL",SAINT PETERSBURG,FL,PINELLAS
33729,"SAINT PETERSBURG, FL",SAINT PETERSBURG,FL,PINELLAS
33731,"SAINT PETERSBURG, FL",SAINT PETERSBURG,FL,PINELLAS
33732,"SAINT PETERSBURG, FL",SAINT PETERSBURG,FL,PINELLAS
33733,"SAINT PETERSBURG, FL",SAINT PETERSBURG,FL,PINELLAS
33734,"SAINT PETERSBURG, FL",SAINT PETERSBURG,FL,PINELLAS
33736,"SAINT PETERSBURG, FL",SAINT PETERSBURG,FL,PINELLAS
33737,"SAINT PETERSBURG, FL",SAINT PETERSBURG,FL,PINELLAS
33738,"SAINT PETERSBURG, FL",SAINT PETERSBURG,FL,PINELLAS
33741,"SAINT PETERSBURG, FL",SAINT PETERSBURG,FL,PINELLAS
33742,"SAINT PETERSBURG, FL",SAINT PETERSBURG,FL,PINELLAS
33743,"SAINT PETERSBURG, FL",SAINT PETERSBURG,FL,PINELLAS
33747,"SAINT PETERSBURG, FL",SAINT PETERSBURG,FL,PINELLAS
33784,"SAINT PETERSBURG, FL",SAINT PETERSBURG,FL,PINELLAS
32356,"SALEM, FL",SALEM,FL,TAYLOR
33576,"SAN ANTONIO, FL",SAN ANTONIO,FL,PASCO
32187,"SAN MATEO, FL",SAN MATEO,FL,PUTNAM
32087,"SANDERSON, FL",SANDERSON,FL,BAKER
32771,"SANFORD, FL",SANFORD,FL,SEMINOLE
32772,"SANFORD, FL",SANFORD,FL,SEMINOLE
32773,"SANFORD, FL",SANFORD,FL,SEMINOLE
33957,"SANIBEL, FL",SANIBEL,FL,LEE
32459,"SANTA ROSA BEACH, FL",SANTA ROSA BEACH,FL,WALTON
34243,"SARASOTA, FL",SARASOTA,FL,MANATEE
34230,"SARASOTA, FL",SARASOTA,FL,SARASOTA
34231,"SARASOTA, FL",SARASOTA,FL,SARASOTA
34232,"SARASOTA, FL",SARASOTA,FL,SARASOTA
34233,"SARASOTA, FL",SARASOTA,FL,SARASOTA
34234,"SARASOTA, FL",SARASOTA,FL,SARASOTA
34235,"SARASOTA, FL",SARASOTA,FL,SARASOTA
34236,"SARASOTA, FL",SARASOTA,FL,SARASOTA
34237,"SARASOTA, FL",SARASOTA,FL,SARASOTA
34238,"SARASOTA, FL",SARASOTA,FL,SARASOTA
34239,"SARASOTA, FL",SARASOTA,FL,SARASOTA
34240,"SARASOTA, FL",SARASOTA,FL,SARASOTA
34241,"SARASOTA, FL",SARASOTA,FL,SARASOTA
34242,"SARASOTA, FL",SARASOTA,FL,SARASOTA
34276,"SARASOTA, FL",SARASOTA,FL,SARASOTA
34277,"SARASOTA, FL",SARASOTA,FL,SARASOTA
34278,"SARASOTA, FL",SARASOTA,FL,SARASOTA
32937,"SATELLITE BEACH, FL",SATELLITE BEACH,FL,BREVARD
32189,"SATSUMA, FL",SATSUMA,FL,PUTNAM
32775,"SCOTTSMOOR, FL",SCOTTSMOOR,FL,BREVARD
32976,"SEBASTIAN, FL",SEBASTIAN,FL,BREVARD
32958,"SEBASTIAN, FL",SEBASTIAN,FL,INDIAN RIVER
32978,"SEBASTIAN, FL",SEBASTIAN,FL,INDIAN RIVER
33870,"SEBRING, FL",SEBRING,FL,HIGHLANDS
33871,"SEBRING, FL",SEBRING,FL,HIGHLANDS
33872,"SEBRING, FL",SEBRING,FL,HIGHLANDS
33875,"SEBRING, FL",SEBRING,FL,HIGHLANDS
33876,"SEBRING, FL",SEBRING,FL,HIGHLANDS
33583,"SEFFNER, FL",SEFFNER,FL,HILLSBOROUGH
33584,"SEFFNER, FL",SEFFNER,FL,HILLSBOROUGH
33772,"SEMINOLE, FL",SEMINOLE,FL,PINELLAS
33775,"SEMINOLE, FL",SEMINOLE,FL,PINELLAS
33776,"SEMINOLE, FL",SEMINOLE,FL,PINELLAS
33777,"SEMINOLE, FL",SEMINOLE,FL,PINELLAS
32190,"SEVILLE, FL",SEVILLE,FL,VOLUSIA
32357,"SHADY GROVE, FL",SHADY GROVE,FL,TAYLOR
32579,"SHALIMAR, FL",SHALIMAR,FL,OKALOOSA
32959,"SHARPES, FL",SHARPES,FL,BREVARD
34488,"SILVER SPRINGS, FL",SILVER SPRINGS,FL,MARION
34489,"SILVER SPRINGS, FL",SILVER SPRINGS,FL,MARION
32460,"SNEADS, FL",SNEADS,FL,JACKSON
32358,"SOPCHOPPY, FL",SOPCHOPPY,FL,WAKULLA
32776,"SORRENTO, FL",SORRENTO,FL,LAKE
33493,"SOUTH BAY, FL",SOUTH BAY,FL,PALM BEACH
32192,"SPARR, FL",SPARR,FL,MARION
34606,"SPRING HILL, FL",SPRING HILL,FL,HERNANDO
34607,"SPRING HILL, FL",SPRING HILL,FL,HERNANDO
34608,"SPRING HILL, FL",SPRING HILL,FL,HERNANDO
34609,"SPRING HILL, FL",SPRING HILL,FL,HERNANDO
34611,"SPRING HILL, FL",SPRING HILL,FL,HERNANDO
34610,"SPRING HILL, FL",SPRING HILL,FL,PASCO
32091,"STARKE, FL",STARKE,FL,BRADFORD
32359,"STEINHATCHEE, FL",STEINHATCHEE,FL,TAYLOR
34994,"STUART, FL",STUART,FL,MARTIN
34995,"STUART, FL",STUART,FL,MARTIN
34996,"STUART, FL",STUART,FL,MARTIN
34997,"STUART, FL",STUART,FL,MARTIN
32335,"SUMATRA, FL",SUMATRA,FL,LIBERTY
34491,"SUMMERFIELD, FL",SUMMERFIELD,FL,MARION
34492,"SUMMERFIELD, FL",SUMMERFIELD,FL,MARION
33042,"SUMMERLAND KEY, FL",SUMMERLAND KEY,FL,MONROE
33585,"SUMTERVILLE, FL",SUMTERVILLE,FL,SUMTER
33586,"SUN CITY, FL",SUN CITY,FL,HILLSBOROUGH
33571,"SUN CITY CENTER, FL",SUN CITY CENTER,FL,HILLSBOROUGH
33573,"SUN CITY CENTER, FL",SUN CITY CENTER,FL,HILLSBOROUGH
32692,"SUWANNEE, FL",SUWANNEE,FL,DIXIE
33587,"SYDNEY, FL",SYDNEY,FL,HILLSBOROUGH
32301,"TALLAHASSEE, FL",TALLAHASSEE,FL,LEON
32302,"TALLAHASSEE, FL",TALLAHASSEE,FL,LEON
32303,"TALLAHASSEE, FL",TALLAHASSEE,FL,LEON
32304,"TALLAHASSEE, FL",TALLAHASSEE,FL,LEON
32305,"TALLAHASSEE, FL",TALLAHASSEE,FL,LEON
32306,"TALLAHASSEE, FL",TALLAHASSEE,FL,LEON
32307,"TALLAHASSEE, FL",TALLAHASSEE,FL,LEON
32308,"TALLAHASSEE, FL",TALLAHASSEE,FL,LEON
32309,"TALLAHASSEE, FL",TALLAHASSEE,FL,LEON
32310,"TALLAHASSEE, FL",TALLAHASSEE,FL,LEON
32311,"TALLAHASSEE, FL",TALLAHASSEE,FL,LEON
32312,"TALLAHASSEE, FL",TALLAHASSEE,FL,LEON
32313,"TALLAHASSEE, FL",TALLAHASSEE,FL,LEON
32314,"TALLAHASSEE, FL",TALLAHASSEE,FL,LEON
32315,"TALLAHASSEE, FL",TALLAHASSEE,FL,LEON
32316,"TALLAHASSEE, FL",TALLAHASSEE,FL,LEON
32317,"TALLAHASSEE, FL",TALLAHASSEE,FL,LEON
32318,"TALLAHASSEE, FL",TALLAHASSEE,FL,LEON
32399,"TALLAHASSEE, FL",TALLAHASSEE,FL,LEON
34270,"TALLEVAST, FL",TALLEVAST,FL,MANATEE
33601,"TAMPA, FL",TAMPA,FL,HILLSBOROUGH
33602,"TAMPA, FL",TAMPA,FL,HILLSBOROUGH
33603,"TAMPA, FL",TAMPA,FL,HILLSBOROUGH
33604,"TAMPA, FL",TAMPA,FL,HILLSBOROUGH
33605,"TAMPA, FL",TAMPA,FL,HILLSBOROUGH
33606,"TAMPA, FL",TAMPA,FL,HILLSBOROUGH
33607,"TAMPA, FL",TAMPA,FL,HILLSBOROUGH
33608,"TAMPA, FL",TAMPA,FL,HILLSBOROUGH
33609,"TAMPA, FL",TAMPA,FL,HILLSBOROUGH
33610,"TAMPA, FL",TAMPA,FL,HILLSBOROUGH
33611,"TAMPA, FL",TAMPA,FL,HILLSBOROUGH
33612,"TAMPA, FL",TAMPA,FL,HILLSBOROUGH
33613,"TAMPA, FL",TAMPA,FL,HILLSBOROUGH
33614,"TAMPA, FL",TAMPA,FL,HILLSBOROUGH
33615,"TAMPA, FL",TAMPA,FL,HILLSBOROUGH
33616,"TAMPA, FL",TAMPA,FL,HILLSBOROUGH
33617,"TAMPA, FL",TAMPA,FL,HILLSBOROUGH
33618,"TAMPA, FL",TAMPA,FL,HILLSBOROUGH
33619,"TAMPA, FL",TAMPA,FL,HILLSBOROUGH
33620,"TAMPA, FL",TAMPA,FL,HILLSBOROUGH
33621,"TAMPA, FL",TAMPA,FL,HILLSBOROUGH
33622,"TAMPA, FL",TAMPA,FL,HILLSBOROUGH
33623,"TAMPA, FL",TAMPA,FL,HILLSBOROUGH
33624,"TAMPA, FL",TAMPA,FL,HILLSBOROUGH
33625,"TAMPA, FL",TAMPA,FL,HILLSBOROUGH
33626,"TAMPA, FL",TAMPA,FL,HILLSBOROUGH
33629,"TAMPA, FL",TAMPA,FL,HILLSBOROUGH
33630,"TAMPA, FL",TAMPA,FL,HILLSBOROUGH
33631,"TAMPA, FL",TAMPA,FL,HILLSBOROUGH
33633,"TAMPA, FL",TAMPA,FL,HILLSBOROUGH
33634,"TAMPA, FL",TAMPA,FL,HILLSBOROUGH
33635,"TAMPA, FL",TAMPA,FL,HILLSBOROUGH
33637,"TAMPA, FL",TAMPA,FL,HILLSBOROUGH
33646,"TAMPA, FL",TAMPA,FL,HILLSBOROUGH
33647,"TAMPA, FL",TAMPA,FL,HILLSBOROUGH
33655,"TAMPA, FL",TAMPA,FL,HILLSBOROUGH
33660,"TAMPA, FL",TAMPA,FL,HILLSBOROUGH
33661,"TAMPA, FL",TAMPA,FL,HILLSBOROUGH
33672,"TAMPA, FL",TAMPA,FL,HILLSBOROUGH
33673,"TAMPA, FL",TAMPA,FL,HILLSBOROUGH
33674,"TAMPA, FL",TAMPA,FL,HILLSBOROUGH
33675,"TAMPA, FL",TAMPA,FL,HILLSBOROUGH
33677,"TAMPA, FL",TAMPA,FL,HILLSBOROUGH
33679,"TAMPA, FL",TAMPA,FL,HILLSBOROUGH
33680,"TAMPA, FL",TAMPA,FL,HILLSBOROUGH
33681,"TAMPA, FL",TAMPA,FL,HILLSBOROUGH
33682,"TAMPA, FL",TAMPA,FL,HILLSBOROUGH
33684,"TAMPA, FL",TAMPA,FL,HILLSBOROUGH
33685,"TAMPA, FL",TAMPA,FL,HILLSBOROUGH
33686,"TAMPA, FL",TAMPA,FL,HILLSBOROUGH
33687,"TAMPA, FL",TAMPA,FL,HILLSBOROUGH
33688,"TAMPA, FL",TAMPA,FL,HILLSBOROUGH
33689,"TAMPA, FL",TAMPA,FL,HILLSBOROUGH
33694,"TAMPA, FL",TAMPA,FL,HILLSBOROUGH
32777,"TANGERINE, FL",TANGERINE,FL,ORANGE
34688,"TARPON SPRINGS, FL",TARPON SPRINGS,FL,PINELLAS
34689,"TARPON SPRINGS, FL",TARPON SPRINGS,FL,PINELLAS
32778,"TAVARES, FL",TAVARES,FL,LAKE
33070,"TAVERNIER, FL",TAVERNIER,FL,MONROE
32360,"TELOGIA, FL",TELOGIA,FL,LIBERTY
34250,"TERRA CEIA, FL",TERRA CEIA,FL,MANATEE
32162,"THE VILLAGES, FL",THE VILLAGES,FL,SUMTER
32163,"THE VILLAGES, FL",THE VILLAGES,FL,SUMTER
33592,"THONOTOSASSA, FL",THONOTOSASSA,FL,HILLSBOROUGH
32780,"TITUSVILLE, FL",TITUSVILLE,FL,BREVARD
32781,"TITUSVILLE, FL",TITUSVILLE,FL,BREVARD
32783,"TITUSVILLE, FL",TITUSVILLE,FL,BREVARD
32796,"TITUSVILLE, FL",TITUSVILLE,FL,BREVARD
32693,"TRENTON, FL",TRENTON,FL,GILCHRIST
33593,"TRILBY, FL",TRILBY,FL,PASCO
32784,"UMATILLA, FL",UMATILLA,FL,LAKE
32580,"VALPARAISO, FL",VALPARAISO,FL,OKALOOSA
33594,"VALRICO, FL",VALRICO,FL,HILLSBOROUGH
33595,"VALRICO, FL",VALRICO,FL,HILLSBOROUGH
33596,"VALRICO, FL",VALRICO,FL,HILLSBOROUGH
34284,"VENICE, FL",VENICE,FL,SARASOTA
34285,"VENICE, FL",VENICE,FL,SARASOTA
34292,"VENICE, FL",VENICE,FL,SARASOTA
34293,"VENICE, FL",VENICE,FL,SARASOTA
33960,"VENUS, FL",VENUS,FL,HIGHLANDS
32462,"VERNON, FL",VERNON,FL,WASHINGTON
32960,"VERO BEACH, FL",VERO BEACH,FL,INDIAN RIVER
32961,"VERO BEACH, FL",VERO BEACH,FL,INDIAN RIVER
32962,"VERO BEACH, FL",VERO BEACH,FL,INDIAN RIVER
32963,"VERO BEACH, FL",VERO BEACH,FL,INDIAN RIVER
32964,"VERO BEACH, FL",VERO BEACH,FL,INDIAN RIVER
32965,"VERO BEACH, FL",VERO BEACH,FL,INDIAN RIVER
32966,"VERO BEACH, FL",VERO BEACH,FL,INDIAN RIVER
32967,"VERO BEACH, FL",VERO BEACH,FL,INDIAN RIVER
32968,"VERO BEACH, FL",VERO BEACH,FL,INDIAN RIVER
32969,"VERO BEACH, FL",VERO BEACH,FL,INDIAN RIVER
32970,"WABASSO, FL",WABASSO,FL,INDIAN RIVER
32361,"WACISSA, FL",WACISSA,FL,JEFFERSON
32694,"WALDO, FL",WALDO,FL,ALACHUA
33873,"WAUCHULA, FL",WAUCHULA,FL,HARDEE
32463,"WAUSAU, FL",WAUSAU,FL,WASHINGTON
33877,"WAVERLY, FL",WAVERLY,FL,POLK
33597,"WEBSTER, FL",WEBSTER,FL,SUMTER
32195,"WEIRSDALE, FL",WEIRSDALE,FL,MARION
32193,"WELAKA, FL",WELAKA,FL,PUTNAM
32094,"WELLBORN, FL",WELLBORN,FL,SUWANNEE
33414,"WELLINGTON, FL",WELLINGTON,FL,PALM BEACH
33543,"WESLEY CHAPEL, FL",WESLEY CHAPEL,FL,PASCO
33544,"WESLEY CHAPEL, FL",WESLEY CHAPEL,FL,PASCO
33545,"WESLEY CHAPEL, FL",WESLEY CHAPEL,FL,PASCO
33401,"WEST PALM BEACH, FL",WEST PALM BEACH,FL,PALM BEACH
33402,"WEST PALM BEACH, FL",WEST PALM BEACH,FL,PALM BEACH
33403,"WEST PALM BEACH, FL",WEST PALM BEACH,FL,PALM BEACH
33404,"WEST PALM BEACH, FL",WEST PALM BEACH,FL,PALM BEACH
33405,"WEST PALM BEACH, FL",WEST PALM BEACH,FL,PALM BEACH
33406,"WEST PALM BEACH, FL",WEST PALM BEACH,FL,PALM BEACH
33407,"WEST PALM BEACH, FL",WEST PALM BEACH,FL,PALM BEACH
33409,"WEST PALM BEACH, FL",WEST PALM BEACH,FL,PALM BEACH
33411,"WEST PALM BEACH, FL",WEST PALM BEACH,FL,PALM BEACH
33412,"WEST PALM BEACH, FL",WEST PALM BEACH,FL,PALM BEACH
33413,"WEST PALM BEACH, FL",WEST PALM BEACH,FL,PALM BEACH
33415,"WEST PALM BEACH, FL",WEST PALM BEACH,FL,PALM BEACH
33416,"WEST PALM BEACH, FL",WEST PALM BEACH,FL,PALM BEACH
33417,"WEST PALM BEACH, FL",WEST PALM BEACH,FL,PALM BEACH
33419,"WEST PALM BEACH, FL",WEST PALM BEACH,FL,PALM BEACH
33420,"WEST PALM BEACH, FL",WEST PALM BEACH,FL,PALM BEACH
33422,"WEST PALM BEACH, FL",WEST PALM BEACH,FL,PALM BEACH
32464,"WESTVILLE, FL",WESTVILLE,FL,HOLMES
32449,"WEWAHITCHKA, FL",WEWAHITCHKA,FL,CALHOUN
32465,"WEWAHITCHKA, FL",WEWAHITCHKA,FL,GULF
32096,"WHITE SPRINGS, FL",WHITE SPRINGS,FL,HAMILTON
34785,"WILDWOOD, FL",WILDWOOD,FL,SUMTER
32696,"WILLISTON, FL",WILLISTON,FL,LEVY
33598,"WIMAUMA, FL",WIMAUMA,FL,HILLSBOROUGH
34786,"WINDERMERE, FL",WINDERMERE,FL,ORANGE
32971,"WINTER BEACH, FL",WINTER BEACH,FL,INDIAN RIVER
34777,"WINTER GARDEN, FL",WINTER GARDEN,FL,ORANGE
34778,"WINTER GARDEN, FL",WINTER GARDEN,FL,ORANGE
34787,"WINTER GARDEN, FL",WINTER GARDEN,FL,ORANGE
33880,"WINTER HAVEN, FL",WINTER HAVEN,FL,POLK
33881,"WINTER HAVEN, FL",WINTER HAVEN,FL,POLK
33882,"WINTER HAVEN, FL",WINTER HAVEN,FL,POLK
33883,"WINTER HAVEN, FL",WINTER HAVEN,FL,POLK
33884,"WINTER HAVEN, FL",WINTER HAVEN,FL,POLK
33885,"WINTER HAVEN, FL",WINTER HAVEN,FL,POLK
33888,"WINTER HAVEN, FL",WINTER HAVEN,FL,POLK
32789,"WINTER PARK, FL",WINTER PARK,FL,ORANGE
32790,"WINTER PARK, FL",WINTER PARK,FL,ORANGE
32792,"WINTER PARK, FL",WINTER PARK,FL,ORANGE
32793,"WINTER PARK, FL",WINTER PARK,FL,ORANGE
32708,"WINTER SPRINGS, FL",WINTER SPRINGS,FL,SEMINOLE
32719,"WINTER SPRINGS, FL",WINTER SPRINGS,FL,SEMINOLE
32362,"WOODVILLE, FL",WOODVILLE,FL,LEON
32697,"WORTHINGTON SPRINGS, FL",WORTHINGTON SPRINGS,FL,UNION
34797,"YALAHA, FL",YALAHA,FL,LAKE
34498,"YANKEETOWN, FL",YANKEETOWN,FL,LEVY
32466,"YOUNGSTOWN, FL",YOUNGSTOWN,FL,BAY
32041,"YULEE, FL",YULEE,FL,NASSAU
32097,"YULEE, FL",YULEE,FL,NASSAU
32798,"ZELLWOOD, FL",ZELLWOOD,FL,ORANGE
33539,"ZEPHYRHILLS, FL",ZEPHYRHILLS,FL,PASCO
33540,"ZEPHYRHILLS, FL",ZEPHYRHILLS,FL,PASCO
33541,"ZEPHYRHILLS, FL",ZEPHYRHILLS,FL,PASCO
33542,"ZEPHYRHILLS, FL",ZEPHYRHILLS,FL,PASCO
33890,"ZOLFO SPRINGS, FL",ZOLFO SPRINGS,FL,HARDEE